<?xml version="1.0" encoding="UTF-8"?>
<gpx version="1.1" creator="Dolomitok Expedicio - Antigravity" xmlns="http://www.topografix.com/GPX/1/1">
  <metadata>
    <name>Via Ferrata Michielli-Strobel (Punta Fiames)</name>
    <desc>B/C nehezsegu gerincura Cortina felett</desc>
  </metadata>
  <trk>
    <name>Via Ferrata Michielli-Strobel (Punta Fiames)</name>
    <trkseg>
      <trkpt lat="46.576405" lon="12.116152"><ele>1305.129883</ele></trkpt>
      <trkpt lat="46.576380" lon="12.116191"><ele>1305.129883</ele></trkpt>
      <trkpt lat="46.576392" lon="12.116224"><ele>1306.089966</ele></trkpt>
      <trkpt lat="46.576411" lon="12.116169"><ele>1305.610107</ele></trkpt>
      <trkpt lat="46.576421" lon="12.116276"><ele>1305.610107</ele></trkpt>
      <trkpt lat="46.576478" lon="12.116274"><ele>1305.610107</ele></trkpt>
      <trkpt lat="46.576525" lon="12.116443"><ele>1308.969971</ele></trkpt>
      <trkpt lat="46.576577" lon="12.116555"><ele>1310.900024</ele></trkpt>
      <trkpt lat="46.576604" lon="12.116552"><ele>1310.900024</ele></trkpt>
      <trkpt lat="46.576617" lon="12.116632"><ele>1312.340088</ele></trkpt>
      <trkpt lat="46.576522" lon="12.116845"><ele>1316.659912</ele></trkpt>
      <trkpt lat="46.576199" lon="12.117353"><ele>1314.740112</ele></trkpt>
      <trkpt lat="46.576002" lon="12.117588"><ele>1313.300049</ele></trkpt>
      <trkpt lat="46.575992" lon="12.117546"><ele>1314.259888</ele></trkpt>
      <trkpt lat="46.575916" lon="12.118047"><ele>1322.910034</ele></trkpt>
      <trkpt lat="46.575571" lon="12.119384"><ele>1342.140015</ele></trkpt>
      <trkpt lat="46.575456" lon="12.120077"><ele>1351.75</ele></trkpt>
      <trkpt lat="46.575493" lon="12.120169"><ele>1353.669922</ele></trkpt>
      <trkpt lat="46.575473" lon="12.120386"><ele>1357.040039</ele></trkpt>
      <trkpt lat="46.575485" lon="12.120356"><ele>1355.599976</ele></trkpt>
      <trkpt lat="46.575447" lon="12.120372"><ele>1356.080078</ele></trkpt>
      <trkpt lat="46.575483" lon="12.120421"><ele>1356.560059</ele></trkpt>
      <trkpt lat="46.575486" lon="12.120342"><ele>1356.080078</ele></trkpt>
      <trkpt lat="46.575338" lon="12.120826"><ele>1361.839966</ele></trkpt>
      <trkpt lat="46.575401" lon="12.121309"><ele>1366.170044</ele></trkpt>
      <trkpt lat="46.575418" lon="12.121260"><ele>1368.570068</ele></trkpt>
      <trkpt lat="46.575554" lon="12.121373"><ele>1377.22998</ele></trkpt>
      <trkpt lat="46.575622" lon="12.121499"><ele>1381.069946</ele></trkpt>
      <trkpt lat="46.575740" lon="12.121525"><ele>1387.319946</ele></trkpt>
      <trkpt lat="46.575767" lon="12.121634"><ele>1391.170044</ele></trkpt>
      <trkpt lat="46.575888" lon="12.121738"><ele>1401.26001</ele></trkpt>
      <trkpt lat="46.575893" lon="12.121805"><ele>1403.179932</ele></trkpt>
      <trkpt lat="46.576028" lon="12.121858"><ele>1409.910034</ele></trkpt>
      <trkpt lat="46.576292" lon="12.121821"><ele>1424.329956</ele></trkpt>
      <trkpt lat="46.576346" lon="12.121904"><ele>1429.139893</ele></trkpt>
      <trkpt lat="46.576424" lon="12.121904"><ele>1432.97998</ele></trkpt>
      <trkpt lat="46.576505" lon="12.121959"><ele>1436.830078</ele></trkpt>
      <trkpt lat="46.576722" lon="12.122009"><ele>1445.960083</ele></trkpt>
      <trkpt lat="46.576702" lon="12.122017"><ele>1446.919922</ele></trkpt>
      <trkpt lat="46.576753" lon="12.121989"><ele>1448.359985</ele></trkpt>
      <trkpt lat="46.576757" lon="12.122042"><ele>1449.810059</ele></trkpt>
      <trkpt lat="46.576833" lon="12.122006"><ele>1452.690063</ele></trkpt>
      <trkpt lat="46.576849" lon="12.122084"><ele>1454.609985</ele></trkpt>
      <trkpt lat="46.576912" lon="12.122054"><ele>1457.97998</ele></trkpt>
      <trkpt lat="46.576972" lon="12.122099"><ele>1461.820068</ele></trkpt>
      <trkpt lat="46.576987" lon="12.122074"><ele>1461.820068</ele></trkpt>
      <trkpt lat="46.576971" lon="12.122075"><ele>1461.339966</ele></trkpt>
      <trkpt lat="46.577194" lon="12.122056"><ele>1473.359985</ele></trkpt>
      <trkpt lat="46.577265" lon="12.122061"><ele>1475.280029</ele></trkpt>
      <trkpt lat="46.577263" lon="12.122115"><ele>1476.23999</ele></trkpt>
      <trkpt lat="46.577721" lon="12.122166"><ele>1490.180054</ele></trkpt>
      <trkpt lat="46.577765" lon="12.122373"><ele>1497.390015</ele></trkpt>
      <trkpt lat="46.577810" lon="12.122391"><ele>1500.269897</ele></trkpt>
      <trkpt lat="46.577830" lon="12.122479"><ele>1501.719971</ele></trkpt>
      <trkpt lat="46.577821" lon="12.122441"><ele>1501.23999</ele></trkpt>
      <trkpt lat="46.577889" lon="12.122562"><ele>1507.47998</ele></trkpt>
      <trkpt lat="46.577926" lon="12.122537"><ele>1509.409912</ele></trkpt>
      <trkpt lat="46.577970" lon="12.122575"><ele>1511.809937</ele></trkpt>
      <trkpt lat="46.577966" lon="12.122637"><ele>1513.72998</ele></trkpt>
      <trkpt lat="46.578055" lon="12.122787"><ele>1519.97998</ele></trkpt>
      <trkpt lat="46.578061" lon="12.122949"><ele>1526.22998</ele></trkpt>
      <trkpt lat="46.578084" lon="12.122931"><ele>1527.669922</ele></trkpt>
      <trkpt lat="46.578218" lon="12.123077"><ele>1535.839966</ele></trkpt>
      <trkpt lat="46.578141" lon="12.123158"><ele>1541.130005</ele></trkpt>
      <trkpt lat="46.578161" lon="12.123223"><ele>1543.050049</ele></trkpt>
      <trkpt lat="46.578111" lon="12.123284"><ele>1544.97998</ele></trkpt>
      <trkpt lat="46.578222" lon="12.123416"><ele>1552.189941</ele></trkpt>
      <trkpt lat="46.578080" lon="12.123561"><ele>1558.920044</ele></trkpt>
      <trkpt lat="46.577984" lon="12.123720"><ele>1563.719971</ele></trkpt>
      <trkpt lat="46.578004" lon="12.123799"><ele>1566.119995</ele></trkpt>
      <trkpt lat="46.578137" lon="12.123909"><ele>1571.890015</ele></trkpt>
      <trkpt lat="46.578078" lon="12.124054"><ele>1577.180054</ele></trkpt>
      <trkpt lat="46.578103" lon="12.124206"><ele>1582.949951</ele></trkpt>
      <trkpt lat="46.578015" lon="12.124359"><ele>1588.719971</ele></trkpt>
      <trkpt lat="46.578055" lon="12.124399"><ele>1596.409912</ele></trkpt>
      <trkpt lat="46.578078" lon="12.124467"><ele>1598.809937</ele></trkpt>
      <trkpt lat="46.578065" lon="12.124526"><ele>1600.25</ele></trkpt>
      <trkpt lat="46.578119" lon="12.124533"><ele>1603.139893</ele></trkpt>
      <trkpt lat="46.578164" lon="12.124611"><ele>1606.02002</ele></trkpt>
      <trkpt lat="46.578085" lon="12.124825"><ele>1610.830078</ele></trkpt>
      <trkpt lat="46.578104" lon="12.124904"><ele>1608.900024</ele></trkpt>
      <trkpt lat="46.578092" lon="12.125005"><ele>1610.830078</ele></trkpt>
      <trkpt lat="46.578092" lon="12.124976"><ele>1611.310059</ele></trkpt>
      <trkpt lat="46.578137" lon="12.125020"><ele>1625.25</ele></trkpt>
      <trkpt lat="46.578181" lon="12.125107"><ele>1630.530029</ele></trkpt>
      <trkpt lat="46.578216" lon="12.125188"><ele>1635.339966</ele></trkpt>
      <trkpt lat="46.578201" lon="12.125294"><ele>1639.669922</ele></trkpt>
      <trkpt lat="46.578228" lon="12.125315"><ele>1643.030029</ele></trkpt>
      <trkpt lat="46.578118" lon="12.125355"><ele>1645.910034</ele></trkpt>
      <trkpt lat="46.578033" lon="12.125452"><ele>1648.799927</ele></trkpt>
      <trkpt lat="46.578030" lon="12.125419"><ele>1649.76001</ele></trkpt>
      <trkpt lat="46.578052" lon="12.125422"><ele>1648.319946</ele></trkpt>
      <trkpt lat="46.578030" lon="12.125478"><ele>1648.319946</ele></trkpt>
      <trkpt lat="46.577987" lon="12.125450"><ele>1651.199951</ele></trkpt>
      <trkpt lat="46.577822" lon="12.125525"><ele>1659.849976</ele></trkpt>
      <trkpt lat="46.577707" lon="12.125416"><ele>1665.619873</ele></trkpt>
      <trkpt lat="46.577536" lon="12.125449"><ele>1671.390015</ele></trkpt>
      <trkpt lat="46.577538" lon="12.125393"><ele>1669.949951</ele></trkpt>
      <trkpt lat="46.577492" lon="12.125321"><ele>1670.430054</ele></trkpt>
      <trkpt lat="46.577417" lon="12.125323"><ele>1672.830078</ele></trkpt>
      <trkpt lat="46.577310" lon="12.125388"><ele>1679.560059</ele></trkpt>
      <trkpt lat="46.577100" lon="12.125158"><ele>1687.25</ele></trkpt>
      <trkpt lat="46.576997" lon="12.125165"><ele>1693.5</ele></trkpt>
      <trkpt lat="46.576828" lon="12.125262"><ele>1702.149902</ele></trkpt>
      <trkpt lat="46.576790" lon="12.125191"><ele>1703.589966</ele></trkpt>
      <trkpt lat="46.576655" lon="12.125177"><ele>1705.52002</ele></trkpt>
      <trkpt lat="46.576556" lon="12.125230"><ele>1710.320068</ele></trkpt>
      <trkpt lat="46.576436" lon="12.125411"><ele>1718.01001</ele></trkpt>
      <trkpt lat="46.576367" lon="12.125410"><ele>1722.339966</ele></trkpt>
      <trkpt lat="46.576218" lon="12.125504"><ele>1729.549927</ele></trkpt>
      <trkpt lat="46.576115" lon="12.125655"><ele>1736.760132</ele></trkpt>
      <trkpt lat="46.576083" lon="12.125590"><ele>1736.760132</ele></trkpt>
      <trkpt lat="46.576112" lon="12.125611"><ele>1743.970093</ele></trkpt>
      <trkpt lat="46.576132" lon="12.125583"><ele>1747.329956</ele></trkpt>
      <trkpt lat="46.576186" lon="12.125630"><ele>1751.180054</ele></trkpt>
      <trkpt lat="46.576263" lon="12.125608"><ele>1757.910034</ele></trkpt>
      <trkpt lat="46.576319" lon="12.125640"><ele>1763.679932</ele></trkpt>
      <trkpt lat="46.576418" lon="12.125611"><ele>1787.710083</ele></trkpt>
      <trkpt lat="46.576520" lon="12.125638"><ele>1800.209961</ele></trkpt>
      <trkpt lat="46.576598" lon="12.125698"><ele>1806.450073</ele></trkpt>
      <trkpt lat="46.576754" lon="12.125665"><ele>1811.26001</ele></trkpt>
      <trkpt lat="46.576830" lon="12.125676"><ele>1812.219971</ele></trkpt>
      <trkpt lat="46.576880" lon="12.125757"><ele>1815.589966</ele></trkpt>
      <trkpt lat="46.576914" lon="12.125726"><ele>1821.840088</ele></trkpt>
      <trkpt lat="46.576991" lon="12.125746"><ele>1823.759888</ele></trkpt>
      <trkpt lat="46.577082" lon="12.125865"><ele>1836.26001</ele></trkpt>
      <trkpt lat="46.577116" lon="12.125844"><ele>1836.26001</ele></trkpt>
      <trkpt lat="46.577215" lon="12.125892"><ele>1837.219971</ele></trkpt>
      <trkpt lat="46.577259" lon="12.125900"><ele>1838.660034</ele></trkpt>
      <trkpt lat="46.577264" lon="12.125856"><ele>1841.060059</ele></trkpt>
      <trkpt lat="46.577349" lon="12.125925"><ele>1848.75</ele></trkpt>
      <trkpt lat="46.577271" lon="12.126096"><ele>1857.889893</ele></trkpt>
      <trkpt lat="46.577213" lon="12.126065"><ele>1861.72998</ele></trkpt>
      <trkpt lat="46.577060" lon="12.126188"><ele>1873.75</ele></trkpt>
      <trkpt lat="46.577030" lon="12.126163"><ele>1874.22998</ele></trkpt>
      <trkpt lat="46.577013" lon="12.126198"><ele>1876.150024</ele></trkpt>
      <trkpt lat="46.576911" lon="12.126155"><ele>1881.920044</ele></trkpt>
      <trkpt lat="46.576887" lon="12.126196"><ele>1882.400024</ele></trkpt>
      <trkpt lat="46.576826" lon="12.126453"><ele>1902.110107</ele></trkpt>
      <trkpt lat="46.576720" lon="12.126513"><ele>1907.869995</ele></trkpt>
      <trkpt lat="46.576906" lon="12.126653"><ele>1916.040039</ele></trkpt>
      <trkpt lat="46.576926" lon="12.126706"><ele>1918.450073</ele></trkpt>
      <trkpt lat="46.576715" lon="12.126935"><ele>1931.429932</ele></trkpt>
      <trkpt lat="46.576695" lon="12.127144"><ele>1936.710083</ele></trkpt>
      <trkpt lat="46.576594" lon="12.127169"><ele>1938.159912</ele></trkpt>
      <trkpt lat="46.576491" lon="12.127101"><ele>1939.119995</ele></trkpt>
      <trkpt lat="46.576172" lon="12.127200"><ele>1952.089966</ele></trkpt>
      <trkpt lat="46.576054" lon="12.127340"><ele>1957.380005</ele></trkpt>
      <trkpt lat="46.576034" lon="12.127438"><ele>1962.670044</ele></trkpt>
      <trkpt lat="46.575922" lon="12.127474"><ele>1962.670044</ele></trkpt>
      <trkpt lat="46.575873" lon="12.127339"><ele>1964.110107</ele></trkpt>
      <trkpt lat="46.575845" lon="12.127330"><ele>1963.150024</ele></trkpt>
      <trkpt lat="46.575877" lon="12.127397"><ele>1964.110107</ele></trkpt>
      <trkpt lat="46.575829" lon="12.127333"><ele>1963.630005</ele></trkpt>
      <trkpt lat="46.575916" lon="12.127457"><ele>1963.150024</ele></trkpt>
      <trkpt lat="46.576018" lon="12.127408"><ele>1968.920044</ele></trkpt>
      <trkpt lat="46.576110" lon="12.127425"><ele>1975.169922</ele></trkpt>
      <trkpt lat="46.576242" lon="12.127347"><ele>1986.699951</ele></trkpt>
      <trkpt lat="46.576270" lon="12.127371"><ele>1987.660034</ele></trkpt>
      <trkpt lat="46.576270" lon="12.127320"><ele>1990.070068</ele></trkpt>
      <trkpt lat="46.576436" lon="12.127317"><ele>1997.76001</ele></trkpt>
      <trkpt lat="46.576442" lon="12.127278"><ele>2000.639893</ele></trkpt>
      <trkpt lat="46.576459" lon="12.127290"><ele>2002.559937</ele></trkpt>
      <trkpt lat="46.576518" lon="12.127248"><ele>2004.969971</ele></trkpt>
      <trkpt lat="46.576583" lon="12.127279"><ele>2008.330078</ele></trkpt>
      <trkpt lat="46.576520" lon="12.127417"><ele>2013.140015</ele></trkpt>
      <trkpt lat="46.576601" lon="12.127444"><ele>2016.980103</ele></trkpt>
      <trkpt lat="46.576751" lon="12.127338"><ele>2016.980103</ele></trkpt>
      <trkpt lat="46.576926" lon="12.127357"><ele>2017.460083</ele></trkpt>
      <trkpt lat="46.576964" lon="12.127332"><ele>2018.910034</ele></trkpt>
      <trkpt lat="46.577069" lon="12.127369"><ele>2023.22998</ele></trkpt>
      <trkpt lat="46.577102" lon="12.127423"><ele>2024.670044</ele></trkpt>
      <trkpt lat="46.577097" lon="12.127466"><ele>2026.119995</ele></trkpt>
      <trkpt lat="46.577056" lon="12.127392"><ele>2026.599976</ele></trkpt>
      <trkpt lat="46.577045" lon="12.127455"><ele>2027.079956</ele></trkpt>
      <trkpt lat="46.577074" lon="12.127442"><ele>2038.130005</ele></trkpt>
      <trkpt lat="46.577156" lon="12.127545"><ele>2054.959961</ele></trkpt>
      <trkpt lat="46.577181" lon="12.127518"><ele>2060.23999</ele></trkpt>
      <trkpt lat="46.577266" lon="12.127700"><ele>2082.830078</ele></trkpt>
      <trkpt lat="46.577300" lon="12.127671"><ele>2098.209961</ele></trkpt>
      <trkpt lat="46.577382" lon="12.127760"><ele>2097.72998</ele></trkpt>
      <trkpt lat="46.577348" lon="12.127897"><ele>2105.419922</ele></trkpt>
      <trkpt lat="46.577066" lon="12.128278"><ele>2108.790039</ele></trkpt>
      <trkpt lat="46.577037" lon="12.128394"><ele>2111.189941</ele></trkpt>
      <trkpt lat="46.576933" lon="12.128417"><ele>2113.600098</ele></trkpt>
      <trkpt lat="46.576712" lon="12.128396"><ele>2120.810059</ele></trkpt>
      <trkpt lat="46.576652" lon="12.128424"><ele>2123.689941</ele></trkpt>
      <trkpt lat="46.576346" lon="12.128734"><ele>2142.439941</ele></trkpt>
      <trkpt lat="46.576222" lon="12.128781"><ele>2148.199951</ele></trkpt>
      <trkpt lat="46.576257" lon="12.128836"><ele>2152.530029</ele></trkpt>
      <trkpt lat="46.576163" lon="12.128977"><ele>2159.26001</ele></trkpt>
      <trkpt lat="46.576196" lon="12.129037"><ele>2163.579834</ele></trkpt>
      <trkpt lat="46.576171" lon="12.129039"><ele>2163.099854</ele></trkpt>
      <trkpt lat="46.576173" lon="12.129011"><ele>2175.600098</ele></trkpt>
      <trkpt lat="46.576216" lon="12.129046"><ele>2178.969971</ele></trkpt>
      <trkpt lat="46.576216" lon="12.129109"><ele>2182.330078</ele></trkpt>
      <trkpt lat="46.576265" lon="12.129182"><ele>2193.870117</ele></trkpt>
      <trkpt lat="46.576292" lon="12.129156"><ele>2198.669922</ele></trkpt>
      <trkpt lat="46.576584" lon="12.129189"><ele>2207.810059</ele></trkpt>
      <trkpt lat="46.576596" lon="12.129353"><ele>2211.169922</ele></trkpt>
      <trkpt lat="46.576567" lon="12.129393"><ele>2213.570068</ele></trkpt>
      <trkpt lat="46.576542" lon="12.129599"><ele>2216.459961</ele></trkpt>
      <trkpt lat="46.576413" lon="12.129612"><ele>2223.669922</ele></trkpt>
      <trkpt lat="46.576116" lon="12.130024"><ele>2246.26001</ele></trkpt>
      <trkpt lat="46.576060" lon="12.129978"><ele>2247.219971</ele></trkpt>
      <trkpt lat="46.575973" lon="12.129998"><ele>2249.620117</ele></trkpt>
      <trkpt lat="46.575974" lon="12.130021"><ele>2249.620117</ele></trkpt>
      <trkpt lat="46.575977" lon="12.129988"><ele>2250.100098</ele></trkpt>
      <trkpt lat="46.576053" lon="12.129979"><ele>2246.73999</ele></trkpt>
      <trkpt lat="46.576129" lon="12.130038"><ele>2245.780029</ele></trkpt>
      <trkpt lat="46.576258" lon="12.130012"><ele>2240.01001</ele></trkpt>
      <trkpt lat="46.576400" lon="12.130076"><ele>2230.880127</ele></trkpt>
      <trkpt lat="46.576516" lon="12.130038"><ele>2225.590088</ele></trkpt>
      <trkpt lat="46.576696" lon="12.130179"><ele>2206.839844</ele></trkpt>
      <trkpt lat="46.576812" lon="12.130386"><ele>2206.360107</ele></trkpt>
      <trkpt lat="46.576877" lon="12.130682"><ele>2205.400146</ele></trkpt>
      <trkpt lat="46.576812" lon="12.130953"><ele>2195.790039</ele></trkpt>
      <trkpt lat="46.576812" lon="12.131327"><ele>2185.689941</ele></trkpt>
      <trkpt lat="46.576761" lon="12.131533"><ele>2180.409912</ele></trkpt>
      <trkpt lat="46.576774" lon="12.131624"><ele>2178.47998</ele></trkpt>
      <trkpt lat="46.576735" lon="12.131778"><ele>2178.969971</ele></trkpt>
      <trkpt lat="46.576748" lon="12.132049"><ele>2176.080078</ele></trkpt>
      <trkpt lat="46.576619" lon="12.132436"><ele>2174.639893</ele></trkpt>
      <trkpt lat="46.576735" lon="12.133042"><ele>2171.76001</ele></trkpt>
      <trkpt lat="46.576645" lon="12.133300"><ele>2173.0</ele></trkpt>
      <trkpt lat="46.576271" lon="12.133648"><ele>2158.780029</ele></trkpt>
      <trkpt lat="46.576026" lon="12.134022"><ele>2163.099854</ele></trkpt>
      <trkpt lat="46.575949" lon="12.134280"><ele>2164.060059</ele></trkpt>
      <trkpt lat="46.575871" lon="12.134783"><ele>2169.830078</ele></trkpt>
      <trkpt lat="46.575897" lon="12.135054"><ele>2178.0</ele></trkpt>
      <trkpt lat="46.575970" lon="12.135333"><ele>2179.449951</ele></trkpt>
      <trkpt lat="46.575956" lon="12.135264"><ele>2180.409912</ele></trkpt>
      <trkpt lat="46.575912" lon="12.135290"><ele>2178.969971</ele></trkpt>
      <trkpt lat="46.575934" lon="12.135296"><ele>2178.969971</ele></trkpt>
      <trkpt lat="46.575919" lon="12.135330"><ele>2179.449951</ele></trkpt>
      <trkpt lat="46.575912" lon="12.135304"><ele>2179.929932</ele></trkpt>
      <trkpt lat="46.575956" lon="12.135300"><ele>2179.449951</ele></trkpt>
      <trkpt lat="46.575969" lon="12.135334"><ele>2179.449951</ele></trkpt>
      <trkpt lat="46.575902" lon="12.135517"><ele>2174.639893</ele></trkpt>
      <trkpt lat="46.575829" lon="12.135532"><ele>2172.23999</ele></trkpt>
      <trkpt lat="46.575733" lon="12.135482"><ele>2169.350098</ele></trkpt>
      <trkpt lat="46.575742" lon="12.135544"><ele>2169.350098</ele></trkpt>
      <trkpt lat="46.575703" lon="12.135529"><ele>2167.429932</ele></trkpt>
      <trkpt lat="46.575698" lon="12.135611"><ele>2165.030029</ele></trkpt>
      <trkpt lat="46.575645" lon="12.135579"><ele>2162.140137</ele></trkpt>
      <trkpt lat="46.575667" lon="12.135654"><ele>2159.73999</ele></trkpt>
      <trkpt lat="46.575607" lon="12.135640"><ele>2156.369873</ele></trkpt>
      <trkpt lat="46.575536" lon="12.135776"><ele>2149.159912</ele></trkpt>
      <trkpt lat="46.575428" lon="12.135837"><ele>2143.880127</ele></trkpt>
      <trkpt lat="46.575384" lon="12.135810"><ele>2141.469971</ele></trkpt>
      <trkpt lat="46.575347" lon="12.135848"><ele>2139.070068</ele></trkpt>
      <trkpt lat="46.575331" lon="12.135968"><ele>2136.669922</ele></trkpt>
      <trkpt lat="46.575277" lon="12.135992"><ele>2134.26001</ele></trkpt>
      <trkpt lat="46.575209" lon="12.135977"><ele>2127.530029</ele></trkpt>
      <trkpt lat="46.575220" lon="12.136014"><ele>2125.130127</ele></trkpt>
      <trkpt lat="46.575162" lon="12.136015"><ele>2123.689941</ele></trkpt>
      <trkpt lat="46.575114" lon="12.135971"><ele>2121.290039</ele></trkpt>
      <trkpt lat="46.575017" lon="12.136054"><ele>2115.040039</ele></trkpt>
      <trkpt lat="46.574919" lon="12.136247"><ele>2108.790039</ele></trkpt>
      <trkpt lat="46.574804" lon="12.136356"><ele>2102.060059</ele></trkpt>
      <trkpt lat="46.574826" lon="12.136362"><ele>2101.099854</ele></trkpt>
      <trkpt lat="46.574747" lon="12.136354"><ele>2097.72998</ele></trkpt>
      <trkpt lat="46.574644" lon="12.136597"><ele>2091.969971</ele></trkpt>
      <trkpt lat="46.574453" lon="12.136891"><ele>2078.51001</ele></trkpt>
      <trkpt lat="46.574415" lon="12.136858"><ele>2075.619873</ele></trkpt>
      <trkpt lat="46.574236" lon="12.136828"><ele>2058.320068</ele></trkpt>
      <trkpt lat="46.574076" lon="12.136855"><ele>2057.839844</ele></trkpt>
      <trkpt lat="46.574037" lon="12.136999"><ele>2053.98999</ele></trkpt>
      <trkpt lat="46.573883" lon="12.137043"><ele>2046.299927</ele></trkpt>
      <trkpt lat="46.573730" lon="12.137012"><ele>2040.540039</ele></trkpt>
      <trkpt lat="46.573661" lon="12.137088"><ele>2035.72998</ele></trkpt>
      <trkpt lat="46.573414" lon="12.136874"><ele>2019.390015</ele></trkpt>
      <trkpt lat="46.573272" lon="12.136844"><ele>2014.580078</ele></trkpt>
      <trkpt lat="46.573166" lon="12.136772"><ele>2012.180054</ele></trkpt>
      <trkpt lat="46.573127" lon="12.136827"><ele>2011.219971</ele></trkpt>
      <trkpt lat="46.573051" lon="12.136772"><ele>2007.850098</ele></trkpt>
      <trkpt lat="46.572974" lon="12.136937"><ele>1991.029907</ele></trkpt>
      <trkpt lat="46.572707" lon="12.137103"><ele>1985.73999</ele></trkpt>
      <trkpt lat="46.572614" lon="12.137244"><ele>1980.450073</ele></trkpt>
      <trkpt lat="46.572557" lon="12.137400"><ele>1973.720093</ele></trkpt>
      <trkpt lat="46.572575" lon="12.137480"><ele>1974.200073</ele></trkpt>
      <trkpt lat="46.572556" lon="12.137593"><ele>1969.400024</ele></trkpt>
      <trkpt lat="46.572514" lon="12.137675"><ele>1966.029907</ele></trkpt>
      <trkpt lat="46.572397" lon="12.137722"><ele>1959.780029</ele></trkpt>
      <trkpt lat="46.572204" lon="12.137672"><ele>1951.609985</ele></trkpt>
      <trkpt lat="46.572122" lon="12.137763"><ele>1946.809937</ele></trkpt>
      <trkpt lat="46.572065" lon="12.137761"><ele>1943.920044</ele></trkpt>
      <trkpt lat="46.572048" lon="12.137797"><ele>1941.52002</ele></trkpt>
      <trkpt lat="46.571813" lon="12.137887"><ele>1930.949951</ele></trkpt>
      <trkpt lat="46.571784" lon="12.138092"><ele>1929.02002</ele></trkpt>
      <trkpt lat="46.571817" lon="12.138016"><ele>1926.140015</ele></trkpt>
      <trkpt lat="46.571798" lon="12.138102"><ele>1923.73999</ele></trkpt>
      <trkpt lat="46.571764" lon="12.138075"><ele>1919.890015</ele></trkpt>
      <trkpt lat="46.571702" lon="12.138211"><ele>1890.089966</ele></trkpt>
      <trkpt lat="46.571803" lon="12.138469"><ele>1887.689941</ele></trkpt>
      <trkpt lat="46.571789" lon="12.138702"><ele>1880.0</ele></trkpt>
      <trkpt lat="46.571823" lon="12.138683"><ele>1881.440063</ele></trkpt>
      <trkpt lat="46.571758" lon="12.138739"><ele>1877.110107</ele></trkpt>
      <trkpt lat="46.571696" lon="12.138742"><ele>1872.790039</ele></trkpt>
      <trkpt lat="46.571700" lon="12.138770"><ele>1870.859985</ele></trkpt>
      <trkpt lat="46.571536" lon="12.138748"><ele>1857.889893</ele></trkpt>
      <trkpt lat="46.571485" lon="12.138840"><ele>1853.079956</ele></trkpt>
      <trkpt lat="46.571478" lon="12.138922"><ele>1848.27002</ele></trkpt>
      <trkpt lat="46.571431" lon="12.138967"><ele>1847.310059</ele></trkpt>
      <trkpt lat="46.571397" lon="12.138943"><ele>1846.349976</ele></trkpt>
      <trkpt lat="46.571371" lon="12.139037"><ele>1839.140015</ele></trkpt>
      <trkpt lat="46.571271" lon="12.138995"><ele>1833.370117</ele></trkpt>
      <trkpt lat="46.571231" lon="12.139083"><ele>1828.079956</ele></trkpt>
      <trkpt lat="46.571128" lon="12.139142"><ele>1820.390015</ele></trkpt>
      <trkpt lat="46.571050" lon="12.139124"><ele>1815.109985</ele></trkpt>
      <trkpt lat="46.570966" lon="12.139161"><ele>1810.300049</ele></trkpt>
      <trkpt lat="46.570892" lon="12.139138"><ele>1805.48999</ele></trkpt>
      <trkpt lat="46.570926" lon="12.139120"><ele>1791.549927</ele></trkpt>
      <trkpt lat="46.570879" lon="12.139124"><ele>1792.52002</ele></trkpt>
      <trkpt lat="46.570902" lon="12.139097"><ele>1792.029907</ele></trkpt>
      <trkpt lat="46.570886" lon="12.139334"><ele>1795.880005</ele></trkpt>
      <trkpt lat="46.570783" lon="12.139319"><ele>1798.279907</ele></trkpt>
      <trkpt lat="46.570809" lon="12.139339"><ele>1798.759888</ele></trkpt>
      <trkpt lat="46.570740" lon="12.139370"><ele>1798.759888</ele></trkpt>
      <trkpt lat="46.570682" lon="12.139473"><ele>1796.359985</ele></trkpt>
      <trkpt lat="46.570643" lon="12.139409"><ele>1807.900024</ele></trkpt>
      <trkpt lat="46.570575" lon="12.139560"><ele>1806.450073</ele></trkpt>
      <trkpt lat="46.570451" lon="12.139521"><ele>1800.689941</ele></trkpt>
      <trkpt lat="46.570434" lon="12.139337"><ele>1795.400024</ele></trkpt>
      <trkpt lat="46.570288" lon="12.139216"><ele>1787.710083</ele></trkpt>
      <trkpt lat="46.570282" lon="12.139116"><ele>1785.790039</ele></trkpt>
      <trkpt lat="46.570174" lon="12.138912"><ele>1777.609985</ele></trkpt>
      <trkpt lat="46.570145" lon="12.138937"><ele>1777.130005</ele></trkpt>
      <trkpt lat="46.570081" lon="12.138847"><ele>1770.409912</ele></trkpt>
      <trkpt lat="46.570109" lon="12.138606"><ele>1764.159912</ele></trkpt>
      <trkpt lat="46.570072" lon="12.138450"><ele>1757.910034</ele></trkpt>
      <trkpt lat="46.570101" lon="12.138357"><ele>1754.539917</ele></trkpt>
      <trkpt lat="46.570053" lon="12.138126"><ele>1745.889893</ele></trkpt>
      <trkpt lat="46.570020" lon="12.138131"><ele>1744.450073</ele></trkpt>
      <trkpt lat="46.569979" lon="12.137940"><ele>1736.760132</ele></trkpt>
      <trkpt lat="46.569879" lon="12.138005"><ele>1732.430054</ele></trkpt>
      <trkpt lat="46.569810" lon="12.137771"><ele>1724.73999</ele></trkpt>
      <trkpt lat="46.569720" lon="12.137724"><ele>1719.459961</ele></trkpt>
      <trkpt lat="46.569681" lon="12.137591"><ele>1715.130005</ele></trkpt>
      <trkpt lat="46.569646" lon="12.137602"><ele>1712.72998</ele></trkpt>
      <trkpt lat="46.569544" lon="12.137531"><ele>1706.47998</ele></trkpt>
      <trkpt lat="46.569483" lon="12.137330"><ele>1700.710083</ele></trkpt>
      <trkpt lat="46.569365" lon="12.137201"><ele>1692.539917</ele></trkpt>
      <trkpt lat="46.569189" lon="12.137262"><ele>1684.369995</ele></trkpt>
      <trkpt lat="46.569114" lon="12.137272"><ele>1681.0</ele></trkpt>
      <trkpt lat="46.569082" lon="12.137193"><ele>1678.119995</ele></trkpt>
      <trkpt lat="46.568976" lon="12.137243"><ele>1673.790039</ele></trkpt>
      <trkpt lat="46.568992" lon="12.137179"><ele>1673.790039</ele></trkpt>
      <trkpt lat="46.569012" lon="12.137213"><ele>1674.27002</ele></trkpt>
      <trkpt lat="46.569025" lon="12.137194"><ele>1670.430054</ele></trkpt>
      <trkpt lat="46.568982" lon="12.137222"><ele>1669.949951</ele></trkpt>
      <trkpt lat="46.569063" lon="12.136917"><ele>1668.51001</ele></trkpt>
      <trkpt lat="46.569220" lon="12.136597"><ele>1670.910034</ele></trkpt>
      <trkpt lat="46.569248" lon="12.136627"><ele>1669.949951</ele></trkpt>
      <trkpt lat="46.569205" lon="12.136597"><ele>1670.430054</ele></trkpt>
      <trkpt lat="46.569368" lon="12.136688"><ele>1673.790039</ele></trkpt>
      <trkpt lat="46.569485" lon="12.136374"><ele>1671.390015</ele></trkpt>
      <trkpt lat="46.569748" lon="12.136058"><ele>1668.51001</ele></trkpt>
      <trkpt lat="46.569803" lon="12.136042"><ele>1669.469971</ele></trkpt>
      <trkpt lat="46.570169" lon="12.135707"><ele>1663.700073</ele></trkpt>
      <trkpt lat="46.570189" lon="12.135520"><ele>1664.660034</ele></trkpt>
      <trkpt lat="46.570337" lon="12.135134"><ele>1666.100098</ele></trkpt>
      <trkpt lat="46.570507" lon="12.134934"><ele>1666.580078</ele></trkpt>
      <trkpt lat="46.570578" lon="12.135012"><ele>1668.98999</ele></trkpt>
      <trkpt lat="46.570638" lon="12.134982"><ele>1668.98999</ele></trkpt>
      <trkpt lat="46.570618" lon="12.134797"><ele>1665.140015</ele></trkpt>
      <trkpt lat="46.570718" lon="12.134664"><ele>1667.059937</ele></trkpt>
      <trkpt lat="46.571068" lon="12.133714"><ele>1664.660034</ele></trkpt>
      <trkpt lat="46.571250" lon="12.133305"><ele>1660.809937</ele></trkpt>
      <trkpt lat="46.571407" lon="12.133123"><ele>1660.809937</ele></trkpt>
      <trkpt lat="46.571537" lon="12.133133"><ele>1660.809937</ele></trkpt>
      <trkpt lat="46.571626" lon="12.133018"><ele>1659.849976</ele></trkpt>
      <trkpt lat="46.571679" lon="12.132874"><ele>1657.929932</ele></trkpt>
      <trkpt lat="46.571658" lon="12.132798"><ele>1656.01001</ele></trkpt>
      <trkpt lat="46.571673" lon="12.132702"><ele>1654.090088</ele></trkpt>
      <trkpt lat="46.571780" lon="12.132334"><ele>1648.799927</ele></trkpt>
      <trkpt lat="46.571778" lon="12.132295"><ele>1646.400024</ele></trkpt>
      <trkpt lat="46.571686" lon="12.132254"><ele>1638.700073</ele></trkpt>
      <trkpt lat="46.571558" lon="12.132405"><ele>1635.339966</ele></trkpt>
      <trkpt lat="46.571443" lon="12.132433"><ele>1632.459961</ele></trkpt>
      <trkpt lat="46.571307" lon="12.132534"><ele>1629.090088</ele></trkpt>
      <trkpt lat="46.571228" lon="12.132528"><ele>1628.609985</ele></trkpt>
      <trkpt lat="46.571106" lon="12.132466"><ele>1625.72998</ele></trkpt>
      <trkpt lat="46.570979" lon="12.132488"><ele>1623.319946</ele></trkpt>
      <trkpt lat="46.570905" lon="12.132444"><ele>1619.47998</ele></trkpt>
      <trkpt lat="46.570846" lon="12.132465"><ele>1617.069946</ele></trkpt>
      <trkpt lat="46.570761" lon="12.132328"><ele>1609.380005</ele></trkpt>
      <trkpt lat="46.570678" lon="12.132411"><ele>1606.02002</ele></trkpt>
      <trkpt lat="46.570431" lon="12.132545"><ele>1596.890015</ele></trkpt>
      <trkpt lat="46.570312" lon="12.132552"><ele>1590.640015</ele></trkpt>
      <trkpt lat="46.569962" lon="12.132654"><ele>1580.539917</ele></trkpt>
      <trkpt lat="46.569716" lon="12.132821"><ele>1576.700073</ele></trkpt>
      <trkpt lat="46.569956" lon="12.132627"><ele>1579.579956</ele></trkpt>
      <trkpt lat="46.570054" lon="12.132625"><ele>1582.469971</ele></trkpt>
      <trkpt lat="46.570031" lon="12.132638"><ele>1581.98999</ele></trkpt>
      <trkpt lat="46.570057" lon="12.132589"><ele>1582.949951</ele></trkpt>
      <trkpt lat="46.570025" lon="12.132638"><ele>1581.51001</ele></trkpt>
      <trkpt lat="46.570062" lon="12.132631"><ele>1581.51001</ele></trkpt>
      <trkpt lat="46.570059" lon="12.132655"><ele>1581.030029</ele></trkpt>
      <trkpt lat="46.570049" lon="12.132597"><ele>1581.51001</ele></trkpt>
      <trkpt lat="46.570069" lon="12.132612"><ele>1581.51001</ele></trkpt>
      <trkpt lat="46.570043" lon="12.132656"><ele>1581.51001</ele></trkpt>
      <trkpt lat="46.570077" lon="12.132634"><ele>1581.51001</ele></trkpt>
      <trkpt lat="46.570063" lon="12.132668"><ele>1581.030029</ele></trkpt>
      <trkpt lat="46.570067" lon="12.132620"><ele>1581.98999</ele></trkpt>
      <trkpt lat="46.569996" lon="12.132643"><ele>1580.059937</ele></trkpt>
      <trkpt lat="46.569828" lon="12.132789"><ele>1576.700073</ele></trkpt>
      <trkpt lat="46.569800" lon="12.132760"><ele>1575.73999</ele></trkpt>
      <trkpt lat="46.569622" lon="12.132856"><ele>1573.820068</ele></trkpt>
      <trkpt lat="46.569322" lon="12.132893"><ele>1570.929932</ele></trkpt>
      <trkpt lat="46.569195" lon="12.132790"><ele>1566.119995</ele></trkpt>
      <trkpt lat="46.569207" lon="12.132684"><ele>1564.199951</ele></trkpt>
      <trkpt lat="46.569176" lon="12.132371"><ele>1556.51001</ele></trkpt>
      <trkpt lat="46.569047" lon="12.131956"><ele>1546.420044</ele></trkpt>
      <trkpt lat="46.568988" lon="12.131921"><ele>1544.009888</ele></trkpt>
      <trkpt lat="46.568964" lon="12.131819"><ele>1542.570068</ele></trkpt>
      <trkpt lat="46.568806" lon="12.131678"><ele>1538.25</ele></trkpt>
      <trkpt lat="46.568722" lon="12.131500"><ele>1533.920044</ele></trkpt>
      <trkpt lat="46.568657" lon="12.131683"><ele>1526.709961</ele></trkpt>
      <trkpt lat="46.568638" lon="12.131579"><ele>1524.310059</ele></trkpt>
      <trkpt lat="46.568605" lon="12.131534"><ele>1521.420044</ele></trkpt>
      <trkpt lat="46.568596" lon="12.131557"><ele>1521.420044</ele></trkpt>
      <trkpt lat="46.568610" lon="12.131520"><ele>1521.420044</ele></trkpt>
      <trkpt lat="46.568610" lon="12.131572"><ele>1516.139893</ele></trkpt>
      <trkpt lat="46.568531" lon="12.131296"><ele>1509.890015</ele></trkpt>
      <trkpt lat="46.568571" lon="12.131093"><ele>1505.079956</ele></trkpt>
      <trkpt lat="46.568587" lon="12.130961"><ele>1502.199951</ele></trkpt>
      <trkpt lat="46.568562" lon="12.130946"><ele>1501.23999</ele></trkpt>
      <trkpt lat="46.568561" lon="12.130858"><ele>1499.310059</ele></trkpt>
      <trkpt lat="46.568629" lon="12.130463"><ele>1487.780029</ele></trkpt>
      <trkpt lat="46.568807" lon="12.129896"><ele>1475.76001</ele></trkpt>
      <trkpt lat="46.568854" lon="12.129666"><ele>1469.98999</ele></trkpt>
      <trkpt lat="46.568944" lon="12.129481"><ele>1465.189941</ele></trkpt>
      <trkpt lat="46.568960" lon="12.129329"><ele>1461.339966</ele></trkpt>
      <trkpt lat="46.569083" lon="12.129162"><ele>1457.97998</ele></trkpt>
      <trkpt lat="46.569182" lon="12.129121"><ele>1457.02002</ele></trkpt>
      <trkpt lat="46.569201" lon="12.129011"><ele>1453.650024</ele></trkpt>
      <trkpt lat="46.569135" lon="12.128796"><ele>1448.839966</ele></trkpt>
      <trkpt lat="46.569142" lon="12.128477"><ele>1441.630005</ele></trkpt>
      <trkpt lat="46.569199" lon="12.128351"><ele>1441.630005</ele></trkpt>
      <trkpt lat="46.569317" lon="12.128280"><ele>1441.630005</ele></trkpt>
      <trkpt lat="46.569522" lon="12.128264"><ele>1442.109985</ele></trkpt>
      <trkpt lat="46.569651" lon="12.128220"><ele>1442.109985</ele></trkpt>
      <trkpt lat="46.569661" lon="12.128164"><ele>1440.189941</ele></trkpt>
      <trkpt lat="46.569608" lon="12.128105"><ele>1438.269897</ele></trkpt>
      <trkpt lat="46.569550" lon="12.127938"><ele>1433.939941</ele></trkpt>
      <trkpt lat="46.569620" lon="12.127686"><ele>1426.72998</ele></trkpt>
      <trkpt lat="46.569608" lon="12.127608"><ele>1423.849976</ele></trkpt>
      <trkpt lat="46.569678" lon="12.127512"><ele>1419.52002</ele></trkpt>
      <trkpt lat="46.569686" lon="12.127289"><ele>1417.119995</ele></trkpt>
      <trkpt lat="46.569654" lon="12.127090"><ele>1410.869995</ele></trkpt>
      <trkpt lat="46.569738" lon="12.126967"><ele>1408.469971</ele></trkpt>
      <trkpt lat="46.569822" lon="12.126680"><ele>1402.220093</ele></trkpt>
      <trkpt lat="46.570008" lon="12.126481"><ele>1395.969971</ele></trkpt>
      <trkpt lat="46.569972" lon="12.126442"><ele>1393.570068</ele></trkpt>
      <trkpt lat="46.570046" lon="12.126279"><ele>1390.199951</ele></trkpt>
      <trkpt lat="46.570005" lon="12.126195"><ele>1386.839966</ele></trkpt>
      <trkpt lat="46.570116" lon="12.126045"><ele>1384.439941</ele></trkpt>
      <trkpt lat="46.570159" lon="12.125906"><ele>1380.109985</ele></trkpt>
      <trkpt lat="46.570225" lon="12.125865"><ele>1379.150024</ele></trkpt>
      <trkpt lat="46.570211" lon="12.125807"><ele>1376.26001</ele></trkpt>
      <trkpt lat="46.570409" lon="12.125337"><ele>1368.570068</ele></trkpt>
      <trkpt lat="46.570463" lon="12.125030"><ele>1364.72998</ele></trkpt>
      <trkpt lat="46.570747" lon="12.124558"><ele>1356.080078</ele></trkpt>
      <trkpt lat="46.570857" lon="12.124087"><ele>1350.789917</ele></trkpt>
      <trkpt lat="46.570948" lon="12.123865"><ele>1348.390015</ele></trkpt>
      <trkpt lat="46.570936" lon="12.123396"><ele>1338.290039</ele></trkpt>
      <trkpt lat="46.570956" lon="12.123207"><ele>1332.52002</ele></trkpt>
      <trkpt lat="46.571064" lon="12.122937"><ele>1329.640015</ele></trkpt>
      <trkpt lat="46.571045" lon="12.122943"><ele>1330.119995</ele></trkpt>
      <trkpt lat="46.571615" lon="12.122769"><ele>1330.599976</ele></trkpt>
      <trkpt lat="46.571611" lon="12.122735"><ele>1330.599976</ele></trkpt>
      <trkpt lat="46.571664" lon="12.122764"><ele>1330.599976</ele></trkpt>
      <trkpt lat="46.572931" lon="12.122344"><ele>1332.040039</ele></trkpt>
      <trkpt lat="46.573421" lon="12.122300"><ele>1333.01001</ele></trkpt>
      <trkpt lat="46.573667" lon="12.122356"><ele>1333.48999</ele></trkpt>
      <trkpt lat="46.573870" lon="12.122440"><ele>1333.48999</ele></trkpt>
      <trkpt lat="46.574169" lon="12.122485"><ele>1333.969971</ele></trkpt>
      <trkpt lat="46.574326" lon="12.122453"><ele>1334.449951</ele></trkpt>
      <trkpt lat="46.574660" lon="12.122243"><ele>1335.890015</ele></trkpt>
      <trkpt lat="46.574912" lon="12.121889"><ele>1337.329956</ele></trkpt>
      <trkpt lat="46.575493" lon="12.120432"><ele>1340.699951</ele></trkpt>
      <trkpt lat="46.575471" lon="12.120397"><ele>1340.699951</ele></trkpt>
      <trkpt lat="46.575482" lon="12.120427"><ele>1341.659912</ele></trkpt>
      <trkpt lat="46.575488" lon="12.120300"><ele>1340.220093</ele></trkpt>
      <trkpt lat="46.575451" lon="12.120059"><ele>1336.849976</ele></trkpt>
      <trkpt lat="46.575572" lon="12.119357"><ele>1327.23999</ele></trkpt>
      <trkpt lat="46.575716" lon="12.118754"><ele>1319.070068</ele></trkpt>
      <trkpt lat="46.575858" lon="12.118333"><ele>1311.380005</ele></trkpt>
      <trkpt lat="46.575852" lon="12.118237"><ele>1309.449951</ele></trkpt>
      <trkpt lat="46.575984" lon="12.117623"><ele>1301.280029</ele></trkpt>
      <trkpt lat="46.576352" lon="12.117142"><ele>1300.799927</ele></trkpt>
      <trkpt lat="46.576607" lon="12.116610"><ele>1298.399902</ele></trkpt>
      <trkpt lat="46.576514" lon="12.116314"><ele>1291.670044</ele></trkpt>
      <trkpt lat="46.576419" lon="12.116267"><ele>1291.189941</ele></trkpt>
      <trkpt lat="46.576391" lon="12.116111"><ele>1290.22998</ele></trkpt>
    </trkseg>
  </trk>
</gpx>