<?xml version='1.0' encoding='utf-8'?>
<gpx version="1.1" creator="Dolomites Expedicio" xmlns="http://www.topografix.com/GPX/1/1"><trk><name>Lago di Misurina Körséta</name><trkseg><trkpt lat="46.587200" lon="12.256800"><ele>1754.0</ele></trkpt><trkpt lat="46.586787" lon="12.257606"><ele>1754.3</ele></trkpt><trkpt lat="46.586664" lon="12.257461"><ele>1754.6</ele></trkpt><trkpt lat="46.586590" lon="12.257386"><ele>1754.9</ele></trkpt><trkpt lat="46.586518" lon="12.257360"><ele>1755.2</ele></trkpt><trkpt lat="46.586507" lon="12.257983"><ele>1755.4</ele></trkpt><trkpt lat="46.586045" lon="12.258524"><ele>1755.7</ele></trkpt><trkpt lat="46.585958" lon="12.258585"><ele>1755.9</ele></trkpt><trkpt lat="46.585896" lon="12.258598"><ele>1756.2</ele></trkpt><trkpt lat="46.585776" lon="12.258743"><ele>1756.3</ele></trkpt><trkpt lat="46.585679" lon="12.258839"><ele>1756.5</ele></trkpt><trkpt lat="46.585625" lon="12.258846"><ele>1756.7</ele></trkpt><trkpt lat="46.585529" lon="12.258790"><ele>1756.8</ele></trkpt><trkpt lat="46.585477" lon="12.258762"><ele>1756.9</ele></trkpt><trkpt lat="46.585289" lon="12.258751"><ele>1757.0</ele></trkpt><trkpt lat="46.584814" lon="12.258751"><ele>1757.0</ele></trkpt><trkpt lat="46.584750" lon="12.258772"><ele>1757.0</ele></trkpt><trkpt lat="46.584693" lon="12.258828"><ele>1757.0</ele></trkpt><trkpt lat="46.584598" lon="12.258956"><ele>1756.9</ele></trkpt><trkpt lat="46.584461" lon="12.259110"><ele>1756.8</ele></trkpt><trkpt lat="46.584404" lon="12.259146"><ele>1756.7</ele></trkpt><trkpt lat="46.584341" lon="12.259144"><ele>1756.6</ele></trkpt><trkpt lat="46.584300" lon="12.259177"><ele>1756.4</ele></trkpt><trkpt lat="46.584248" lon="12.259197"><ele>1756.2</ele></trkpt><trkpt lat="46.584164" lon="12.259160"><ele>1756.0</ele></trkpt><trkpt lat="46.584070" lon="12.259052"><ele>1755.8</ele></trkpt><trkpt lat="46.584046" lon="12.258940"><ele>1755.5</ele></trkpt><trkpt lat="46.584037" lon="12.258852"><ele>1755.3</ele></trkpt><trkpt lat="46.583946" lon="12.258616"><ele>1755.0</ele></trkpt><trkpt lat="46.583958" lon="12.258487"><ele>1754.7</ele></trkpt><trkpt lat="46.583943" lon="12.258357"><ele>1754.4</ele></trkpt><trkpt lat="46.583916" lon="12.258256"><ele>1754.1</ele></trkpt><trkpt lat="46.583795" lon="12.258063"><ele>1753.8</ele></trkpt><trkpt lat="46.583681" lon="12.257974"><ele>1753.5</ele></trkpt><trkpt lat="46.583555" lon="12.257910"><ele>1753.2</ele></trkpt><trkpt lat="46.583287" lon="12.257770"><ele>1752.9</ele></trkpt><trkpt lat="46.583141" lon="12.257623"><ele>1752.7</ele></trkpt><trkpt lat="46.583018" lon="12.257451"><ele>1752.4</ele></trkpt><trkpt lat="46.582929" lon="12.257433"><ele>1752.2</ele></trkpt><trkpt lat="46.582851" lon="12.257517"><ele>1751.9</ele></trkpt><trkpt lat="46.582776" lon="12.257552"><ele>1751.7</ele></trkpt><trkpt lat="46.582686" lon="12.257534"><ele>1751.5</ele></trkpt><trkpt lat="46.582603" lon="12.257516"><ele>1751.4</ele></trkpt><trkpt lat="46.582528" lon="12.257610"><ele>1751.3</ele></trkpt><trkpt lat="46.582458" lon="12.257619"><ele>1751.1</ele></trkpt><trkpt lat="46.582415" lon="12.257568"><ele>1751.1</ele></trkpt><trkpt lat="46.582365" lon="12.257375"><ele>1751.0</ele></trkpt><trkpt lat="46.582283" lon="12.257228"><ele>1751.0</ele></trkpt><trkpt lat="46.582202" lon="12.257139"><ele>1751.0</ele></trkpt><trkpt lat="46.582089" lon="12.257053"><ele>1751.1</ele></trkpt><trkpt lat="46.582010" lon="12.256959"><ele>1751.1</ele></trkpt><trkpt lat="46.581955" lon="12.256803"><ele>1751.2</ele></trkpt><trkpt lat="46.581970" lon="12.256629"><ele>1751.3</ele></trkpt><trkpt lat="46.582091" lon="12.256366"><ele>1751.5</ele></trkpt><trkpt lat="46.582162" lon="12.256069"><ele>1751.7</ele></trkpt><trkpt lat="46.582268" lon="12.255754"><ele>1751.9</ele></trkpt><trkpt lat="46.582290" lon="12.255577"><ele>1752.1</ele></trkpt><trkpt lat="46.582258" lon="12.255429"><ele>1752.3</ele></trkpt><trkpt lat="46.582235" lon="12.255334"><ele>1752.6</ele></trkpt><trkpt lat="46.582189" lon="12.255254"><ele>1752.9</ele></trkpt><trkpt lat="46.582136" lon="12.255118"><ele>1753.2</ele></trkpt><trkpt lat="46.582080" lon="12.255078"><ele>1753.5</ele></trkpt><trkpt lat="46.581908" lon="12.255042"><ele>1753.8</ele></trkpt><trkpt lat="46.581778" lon="12.254999"><ele>1754.1</ele></trkpt><trkpt lat="46.581662" lon="12.254827"><ele>1754.3</ele></trkpt><trkpt lat="46.581470" lon="12.254755"><ele>1754.6</ele></trkpt><trkpt lat="46.581331" lon="12.254702"><ele>1754.9</ele></trkpt><trkpt lat="46.581257" lon="12.254688"><ele>1755.2</ele></trkpt><trkpt lat="46.581159" lon="12.254710"><ele>1755.5</ele></trkpt><trkpt lat="46.581035" lon="12.254743"><ele>1755.7</ele></trkpt><trkpt lat="46.580772" lon="12.254757"><ele>1756.0</ele></trkpt><trkpt lat="46.580593" lon="12.254708"><ele>1756.2</ele></trkpt><trkpt lat="46.580453" lon="12.254732"><ele>1756.4</ele></trkpt><trkpt lat="46.580270" lon="12.254812"><ele>1756.6</ele></trkpt><trkpt lat="46.580173" lon="12.254884"><ele>1756.7</ele></trkpt><trkpt lat="46.580072" lon="12.255009"><ele>1756.8</ele></trkpt><trkpt lat="46.580036" lon="12.255125"><ele>1756.9</ele></trkpt><trkpt lat="46.579982" lon="12.255197"><ele>1757.0</ele></trkpt><trkpt lat="46.579875" lon="12.255268"><ele>1757.0</ele></trkpt><trkpt lat="46.579770" lon="12.255314"><ele>1757.0</ele></trkpt><trkpt lat="46.579696" lon="12.255295"><ele>1757.0</ele></trkpt><trkpt lat="46.579654" lon="12.255223"><ele>1756.9</ele></trkpt><trkpt lat="46.579600" lon="12.255026"><ele>1756.8</ele></trkpt><trkpt lat="46.579532" lon="12.254815"><ele>1756.7</ele></trkpt><trkpt lat="46.579395" lon="12.254631"><ele>1756.6</ele></trkpt><trkpt lat="46.579249" lon="12.254519"><ele>1756.4</ele></trkpt><trkpt lat="46.578778" lon="12.254290"><ele>1756.2</ele></trkpt><trkpt lat="46.578599" lon="12.254243"><ele>1756.0</ele></trkpt><trkpt lat="46.578538" lon="12.254218"><ele>1755.8</ele></trkpt><trkpt lat="46.578495" lon="12.254175"><ele>1755.5</ele></trkpt><trkpt lat="46.578469" lon="12.254127"><ele>1755.2</ele></trkpt><trkpt lat="46.578449" lon="12.254056"><ele>1755.0</ele></trkpt><trkpt lat="46.578434" lon="12.253950"><ele>1754.7</ele></trkpt><trkpt lat="46.578429" lon="12.253868"><ele>1754.4</ele></trkpt><trkpt lat="46.578445" lon="12.253607"><ele>1754.1</ele></trkpt><trkpt lat="46.578430" lon="12.253543"><ele>1753.8</ele></trkpt><trkpt lat="46.578199" lon="12.253283"><ele>1753.5</ele></trkpt><trkpt lat="46.577623" lon="12.253218"><ele>1753.2</ele></trkpt><trkpt lat="46.577655" lon="12.253320"><ele>1752.9</ele></trkpt><trkpt lat="46.577624" lon="12.253429"><ele>1752.6</ele></trkpt><trkpt lat="46.577595" lon="12.253531"><ele>1752.4</ele></trkpt><trkpt lat="46.577625" lon="12.253977"><ele>1752.1</ele></trkpt><trkpt lat="46.577578" lon="12.254127"><ele>1751.9</ele></trkpt><trkpt lat="46.577034" lon="12.253921"><ele>1751.7</ele></trkpt><trkpt lat="46.577097" lon="12.253616"><ele>1751.5</ele></trkpt><trkpt lat="46.577645" lon="12.252355"><ele>1751.4</ele></trkpt><trkpt lat="46.577690" lon="12.252213"><ele>1751.2</ele></trkpt><trkpt lat="46.577659" lon="12.252080"><ele>1751.1</ele></trkpt><trkpt lat="46.577565" lon="12.252014"><ele>1751.1</ele></trkpt><trkpt lat="46.577359" lon="12.251872"><ele>1751.0</ele></trkpt><trkpt lat="46.577748" lon="12.252038"><ele>1751.0</ele></trkpt><trkpt lat="46.577691" lon="12.252039"><ele>1751.0</ele></trkpt><trkpt lat="46.577659" lon="12.252080"><ele>1751.1</ele></trkpt><trkpt lat="46.577661" lon="12.252178"><ele>1751.1</ele></trkpt><trkpt lat="46.577729" lon="12.252220"><ele>1751.2</ele></trkpt><trkpt lat="46.577781" lon="12.252144"><ele>1751.4</ele></trkpt><trkpt lat="46.577779" lon="12.252086"><ele>1751.5</ele></trkpt><trkpt lat="46.577748" lon="12.252038"><ele>1751.7</ele></trkpt><trkpt lat="46.577891" lon="12.251601"><ele>1751.9</ele></trkpt><trkpt lat="46.577808" lon="12.251751"><ele>1752.1</ele></trkpt><trkpt lat="46.577689" lon="12.251845"><ele>1752.4</ele></trkpt><trkpt lat="46.577611" lon="12.251919"><ele>1752.7</ele></trkpt><trkpt lat="46.577565" lon="12.252014"><ele>1752.9</ele></trkpt><trkpt lat="46.577551" lon="12.252132"><ele>1753.2</ele></trkpt><trkpt lat="46.577577" lon="12.252253"><ele>1753.5</ele></trkpt><trkpt lat="46.577645" lon="12.252355"><ele>1753.8</ele></trkpt><trkpt lat="46.577790" lon="12.252443"><ele>1754.1</ele></trkpt></trkseg></trk></gpx>