<?xml version="1.0" encoding="UTF-8"?>
<gpx version="1.1" creator="Dolomitok Expedicio - Antigravity" xmlns="http://www.topografix.com/GPX/1/1">
  <metadata>
    <name>Cadini di Misurina Viewpoint</name>
    <desc>Vadregényes kilátóösvény a Rifugio Auronzo parkolóból</desc>
  </metadata>
  <trk>
    <name>Cadini di Misurina Viewpoint</name>
    <trkseg>
      <trkpt lat="46.611874" lon="12.296448"><ele>2294.62</ele></trkpt>
      <trkpt lat="46.611750" lon="12.296448"><ele>2292.57</ele></trkpt>
      <trkpt lat="46.611557" lon="12.296555"><ele>2289.97</ele></trkpt>
      <trkpt lat="46.611428" lon="12.296705"><ele>2287.16</ele></trkpt>
      <trkpt lat="46.611300" lon="12.296855"><ele>2283.82</ele></trkpt>
      <trkpt lat="46.611171" lon="12.297091"><ele>2280.32</ele></trkpt>
      <trkpt lat="46.611031" lon="12.297199"><ele>2276.96</ele></trkpt>
      <trkpt lat="46.610892" lon="12.297306"><ele>2273.53</ele></trkpt>
      <trkpt lat="46.610591" lon="12.297349"><ele>2269.92</ele></trkpt>
      <trkpt lat="46.610430" lon="12.297274"><ele>2267.67</ele></trkpt>
      <trkpt lat="46.610270" lon="12.297199"><ele>2266.14</ele></trkpt>
      <trkpt lat="46.610119" lon="12.297242"><ele>2264.72</ele></trkpt>
      <trkpt lat="46.609819" lon="12.297242"><ele>2263.9</ele></trkpt>
      <trkpt lat="46.609712" lon="12.297328"><ele>2263.17</ele></trkpt>
      <trkpt lat="46.609669" lon="12.297521"><ele>2262.76</ele></trkpt>
      <trkpt lat="46.609669" lon="12.297692"><ele>2262.58</ele></trkpt>
      <trkpt lat="46.609604" lon="12.297983"><ele>2262.37</ele></trkpt>
      <trkpt lat="46.609540" lon="12.298272"><ele>2262.39</ele></trkpt>
      <trkpt lat="46.609476" lon="12.298443"><ele>2262.35</ele></trkpt>
      <trkpt lat="46.609325" lon="12.298529"><ele>2262.25</ele></trkpt>
      <trkpt lat="46.609132" lon="12.298679"><ele>2262.0</ele></trkpt>
      <trkpt lat="46.608961" lon="12.298722"><ele>2262.3</ele></trkpt>
      <trkpt lat="46.608789" lon="12.298765"><ele>2263.06</ele></trkpt>
      <trkpt lat="46.608574" lon="12.298894"><ele>2264.29</ele></trkpt>
      <trkpt lat="46.608381" lon="12.299237"><ele>2266.02</ele></trkpt>
      <trkpt lat="46.608081" lon="12.299280"><ele>2268.27</ele></trkpt>
      <trkpt lat="46.607952" lon="12.299452"><ele>2270.24</ele></trkpt>
      <trkpt lat="46.607823" lon="12.299623"><ele>2272.18</ele></trkpt>
      <trkpt lat="46.607545" lon="12.299752"><ele>2274.21</ele></trkpt>
      <trkpt lat="46.607280" lon="12.299858"><ele>2276.57</ele></trkpt>
      <trkpt lat="46.607016" lon="12.299964"><ele>2279.15</ele></trkpt>
      <trkpt lat="46.606744" lon="12.300072"><ele>2281.92</ele></trkpt>
      <trkpt lat="46.606472" lon="12.300181"><ele>2284.85</ele></trkpt>
      <trkpt lat="46.606246" lon="12.300299"><ele>2287.66</ele></trkpt>
      <trkpt lat="46.606021" lon="12.300417"><ele>2290.4</ele></trkpt>
      <trkpt lat="46.605892" lon="12.300417"><ele>2293.54</ele></trkpt>
      <trkpt lat="46.605688" lon="12.300321"><ele>2296.89</ele></trkpt>
      <trkpt lat="46.605484" lon="12.300224"><ele>2300.33</ele></trkpt>
      <trkpt lat="46.605463" lon="12.300203"><ele>2303.37</ele></trkpt>
      <trkpt lat="46.605377" lon="12.300246"><ele>2306.46</ele></trkpt>
      <trkpt lat="46.605238" lon="12.300138"><ele>2309.62</ele></trkpt>
      <trkpt lat="46.605098" lon="12.300031"><ele>2312.78</ele></trkpt>
      <trkpt lat="46.605012" lon="12.299881"><ele>2315.61</ele></trkpt>
      <trkpt lat="46.604784" lon="12.299802"><ele>2318.53</ele></trkpt>
      <trkpt lat="46.604555" lon="12.299724"><ele>2321.09</ele></trkpt>
      <trkpt lat="46.604326" lon="12.299645"><ele>2323.42</ele></trkpt>
      <trkpt lat="46.604068" lon="12.299452"><ele>2325.46</ele></trkpt>
      <trkpt lat="46.603875" lon="12.299409"><ele>2327.2</ele></trkpt>
      <trkpt lat="46.603789" lon="12.299409"><ele>2328.54</ele></trkpt>
      <trkpt lat="46.603532" lon="12.299323"><ele>2329.39</ele></trkpt>
      <trkpt lat="46.603382" lon="12.299259"><ele>2330.13</ele></trkpt>
      <trkpt lat="46.603239" lon="12.299138"><ele>2330.72</ele></trkpt>
      <trkpt lat="46.603103" lon="12.299023"><ele>2331.5</ele></trkpt>
      <trkpt lat="46.603189" lon="12.298958"><ele>2332.53</ele></trkpt>
      <trkpt lat="46.603210" lon="12.298872"><ele>2333.27</ele></trkpt>
      <trkpt lat="46.603231" lon="12.298787"><ele>2333.77</ele></trkpt>
      <trkpt lat="46.603189" lon="12.298658"><ele>2334.15</ele></trkpt>
      <trkpt lat="46.602974" lon="12.298594"><ele>2333.99</ele></trkpt>
      <trkpt lat="46.602738" lon="12.298357"><ele>2333.5</ele></trkpt>
      <trkpt lat="46.602738" lon="12.298164"><ele>2333.05</ele></trkpt>
      <trkpt lat="46.602534" lon="12.298025"><ele>2331.89</ele></trkpt>
      <trkpt lat="46.602330" lon="12.297885"><ele>2330.18</ele></trkpt>
      <trkpt lat="46.602137" lon="12.297649"><ele>2328.13</ele></trkpt>
      <trkpt lat="46.602137" lon="12.297564"><ele>2326.93</ele></trkpt>
      <trkpt lat="46.602373" lon="12.297392"><ele>2326.71</ele></trkpt>
      <trkpt lat="46.602500" lon="12.297106"><ele>2325.86</ele></trkpt>
      <trkpt lat="46.602545" lon="12.297006"><ele>2324.75</ele></trkpt>
      <trkpt lat="46.602652" lon="12.296941"><ele>2323.76</ele></trkpt>
      <trkpt lat="46.602738" lon="12.296813"><ele>2322.87</ele></trkpt>
      <trkpt lat="46.602716" lon="12.296641"><ele>2321.72</ele></trkpt>
      <trkpt lat="46.602609" lon="12.296276"><ele>2320.65</ele></trkpt>
      <trkpt lat="46.602609" lon="12.296040"><ele>2319.59</ele></trkpt>
      <trkpt lat="46.602502" lon="12.295976"><ele>2318.45</ele></trkpt>
      <trkpt lat="46.602223" lon="12.295933"><ele>2317.22</ele></trkpt>
      <trkpt lat="46.602008" lon="12.295740"><ele>2316.55</ele></trkpt>
      <trkpt lat="46.601815" lon="12.295654"><ele>2315.41</ele></trkpt>
      <trkpt lat="46.601654" lon="12.295547"><ele>2314.33</ele></trkpt>
      <trkpt lat="46.601493" lon="12.295439"><ele>2312.89</ele></trkpt>
      <trkpt lat="46.601214" lon="12.295461"><ele>2310.66</ele></trkpt>
      <trkpt lat="46.600935" lon="12.295482"><ele>2308.47</ele></trkpt>
      <trkpt lat="46.601214" lon="12.295461"><ele>2309.44</ele></trkpt>
      <trkpt lat="46.601493" lon="12.295439"><ele>2312.89</ele></trkpt>
      <trkpt lat="46.601408" lon="12.295289"><ele>2309.76</ele></trkpt>
      <trkpt lat="46.601386" lon="12.295139"><ele>2309.61</ele></trkpt>
      <trkpt lat="46.601365" lon="12.295010"><ele>2309.76</ele></trkpt>
      <trkpt lat="46.601322" lon="12.294796"><ele>2310.39</ele></trkpt>
      <trkpt lat="46.601322" lon="12.294645"><ele>2311.26</ele></trkpt>
      <trkpt lat="46.601286" lon="12.294574"><ele>2312.04</ele></trkpt>
      <trkpt lat="46.601322" lon="12.294645"><ele>2311.26</ele></trkpt>
      <trkpt lat="46.601322" lon="12.294796"><ele>2310.39</ele></trkpt>
      <trkpt lat="46.601365" lon="12.295010"><ele>2309.76</ele></trkpt>
      <trkpt lat="46.601386" lon="12.295139"><ele>2309.61</ele></trkpt>
      <trkpt lat="46.601408" lon="12.295289"><ele>2309.76</ele></trkpt>
      <trkpt lat="46.601493" lon="12.295439"><ele>2312.89</ele></trkpt>
      <trkpt lat="46.601654" lon="12.295546"><ele>2321.63</ele></trkpt>
      <trkpt lat="46.601815" lon="12.295654"><ele>2315.41</ele></trkpt>
      <trkpt lat="46.602008" lon="12.295740"><ele>2316.55</ele></trkpt>
      <trkpt lat="46.602223" lon="12.295933"><ele>2317.22</ele></trkpt>
      <trkpt lat="46.602502" lon="12.295976"><ele>2318.45</ele></trkpt>
      <trkpt lat="46.602609" lon="12.296040"><ele>2319.59</ele></trkpt>
      <trkpt lat="46.602674" lon="12.296062"><ele>2330.25</ele></trkpt>
      <trkpt lat="46.602835" lon="12.296384"><ele>2331.71</ele></trkpt>
      <trkpt lat="46.602995" lon="12.296705"><ele>2332.41</ele></trkpt>
      <trkpt lat="46.603081" lon="12.297006"><ele>2333.36</ele></trkpt>
      <trkpt lat="46.603081" lon="12.297134"><ele>2334.37</ele></trkpt>
      <trkpt lat="46.603170" lon="12.297521"><ele>2335.21</ele></trkpt>
      <trkpt lat="46.603170" lon="12.297521"><ele>2335.78</ele></trkpt>
      <trkpt lat="46.603210" lon="12.297692"><ele>2336.2</ele></trkpt>
      <trkpt lat="46.603253" lon="12.298015"><ele>2336.53</ele></trkpt>
      <trkpt lat="46.603296" lon="12.298336"><ele>2336.9</ele></trkpt>
      <trkpt lat="46.603339" lon="12.298422"><ele>2336.4</ele></trkpt>
      <trkpt lat="46.603446" lon="12.298658"><ele>2335.4</ele></trkpt>
      <trkpt lat="46.603553" lon="12.298894"><ele>2334.1</ele></trkpt>
      <trkpt lat="46.603682" lon="12.299109"><ele>2332.82</ele></trkpt>
      <trkpt lat="46.603789" lon="12.299173"><ele>2331.51</ele></trkpt>
      <trkpt lat="46.603875" lon="12.299409"><ele>2327.2</ele></trkpt>
      <trkpt lat="46.604068" lon="12.299452"><ele>2325.46</ele></trkpt>
      <trkpt lat="46.604326" lon="12.299645"><ele>2323.42</ele></trkpt>
      <trkpt lat="46.604555" lon="12.299724"><ele>2323.6</ele></trkpt>
      <trkpt lat="46.604783" lon="12.299802"><ele>2320.89</ele></trkpt>
      <trkpt lat="46.605012" lon="12.299881"><ele>2315.61</ele></trkpt>
      <trkpt lat="46.605098" lon="12.300031"><ele>2312.78</ele></trkpt>
      <trkpt lat="46.605238" lon="12.300138"><ele>2311.49</ele></trkpt>
      <trkpt lat="46.605377" lon="12.300246"><ele>2306.46</ele></trkpt>
      <trkpt lat="46.605463" lon="12.300203"><ele>2303.37</ele></trkpt>
      <trkpt lat="46.605484" lon="12.300224"><ele>2300.33</ele></trkpt>
      <trkpt lat="46.605688" lon="12.300321"><ele>2298.09</ele></trkpt>
      <trkpt lat="46.605892" lon="12.300417"><ele>2293.54</ele></trkpt>
      <trkpt lat="46.606021" lon="12.300417"><ele>2290.4</ele></trkpt>
      <trkpt lat="46.606246" lon="12.300299"><ele>2288.37</ele></trkpt>
      <trkpt lat="46.606472" lon="12.300181"><ele>2284.85</ele></trkpt>
      <trkpt lat="46.606740" lon="12.300074"><ele>2282.37</ele></trkpt>
      <trkpt lat="46.607008" lon="12.299967"><ele>2279.47</ele></trkpt>
      <trkpt lat="46.607276" lon="12.299860"><ele>2276.77</ele></trkpt>
      <trkpt lat="46.607545" lon="12.299752"><ele>2274.21</ele></trkpt>
      <trkpt lat="46.607823" lon="12.299623"><ele>2272.18</ele></trkpt>
      <trkpt lat="46.607952" lon="12.299452"><ele>2270.13</ele></trkpt>
      <trkpt lat="46.608081" lon="12.299280"><ele>2268.27</ele></trkpt>
      <trkpt lat="46.608381" lon="12.299237"><ele>2266.02</ele></trkpt>
      <trkpt lat="46.608574" lon="12.298894"><ele>2264.29</ele></trkpt>
      <trkpt lat="46.608789" lon="12.298765"><ele>2263.06</ele></trkpt>
      <trkpt lat="46.608961" lon="12.298722"><ele>2261.87</ele></trkpt>
      <trkpt lat="46.609132" lon="12.298679"><ele>2262.0</ele></trkpt>
      <trkpt lat="46.609325" lon="12.298529"><ele>2261.72</ele></trkpt>
      <trkpt lat="46.609476" lon="12.298443"><ele>2262.35</ele></trkpt>
      <trkpt lat="46.609540" lon="12.298272"><ele>2262.39</ele></trkpt>
      <trkpt lat="46.609605" lon="12.297981"><ele>2261.78</ele></trkpt>
      <trkpt lat="46.609669" lon="12.297692"><ele>2261.98</ele></trkpt>
      <trkpt lat="46.609669" lon="12.297521"><ele>2262.76</ele></trkpt>
      <trkpt lat="46.609712" lon="12.297328"><ele>2263.17</ele></trkpt>
      <trkpt lat="46.609819" lon="12.297242"><ele>2263.9</ele></trkpt>
      <trkpt lat="46.610119" lon="12.297242"><ele>2264.72</ele></trkpt>
      <trkpt lat="46.610270" lon="12.297199"><ele>2266.14</ele></trkpt>
      <trkpt lat="46.610430" lon="12.297274"><ele>2267.28</ele></trkpt>
      <trkpt lat="46.610591" lon="12.297349"><ele>2269.92</ele></trkpt>
      <trkpt lat="46.610892" lon="12.297306"><ele>2273.53</ele></trkpt>
      <trkpt lat="46.611031" lon="12.297199"><ele>2276.69</ele></trkpt>
      <trkpt lat="46.611171" lon="12.297091"><ele>2280.32</ele></trkpt>
      <trkpt lat="46.611300" lon="12.296855"><ele>2283.82</ele></trkpt>
      <trkpt lat="46.611428" lon="12.296705"><ele>2287.28</ele></trkpt>
      <trkpt lat="46.611557" lon="12.296555"><ele>2289.97</ele></trkpt>
      <trkpt lat="46.611750" lon="12.296448"><ele>2292.57</ele></trkpt>
      <trkpt lat="46.612008" lon="12.296448"><ele>2295.68</ele></trkpt>
      <trkpt lat="46.612029" lon="12.296383"><ele>2297.83</ele></trkpt>
    </trkseg>
  </trk>
</gpx>