<?xml version="1.0" encoding="UTF-8"?>
<gpx version="1.1" creator="Dolomitok Expedicio - Antigravity" xmlns="http://www.topografix.com/GPX/1/1">
  <metadata>
    <name>Via Ferrata DeLuca-Innerkofler (Monte Paterno)</name>
    <desc>I. vh. alagutak es csucstura a Tre Cime felett</desc>
  </metadata>
  <trk>
    <name>Via Ferrata DeLuca-Innerkofler (Monte Paterno)</name>
    <trkseg>
      <trkpt lat="46.611950" lon="12.295570"><ele>2307.0</ele></trkpt>
      <trkpt lat="46.612220" lon="12.296420"><ele>2310.0</ele></trkpt>
      <trkpt lat="46.613330" lon="12.296720"><ele>2321.0</ele></trkpt>
      <trkpt lat="46.613530" lon="12.297450"><ele>2316.0</ele></trkpt>
      <trkpt lat="46.613660" lon="12.298270"><ele>2318.0</ele></trkpt>
      <trkpt lat="46.613640" lon="12.299070"><ele>2319.0</ele></trkpt>
      <trkpt lat="46.614220" lon="12.301420"><ele>2315.0</ele></trkpt>
      <trkpt lat="46.614200" lon="12.302450"><ele>2311.0</ele></trkpt>
      <trkpt lat="46.614230" lon="12.303960"><ele>2307.0</ele></trkpt>
      <trkpt lat="46.613630" lon="12.305310"><ele>2304.0</ele></trkpt>
      <trkpt lat="46.613500" lon="12.306770"><ele>2307.0</ele></trkpt>
      <trkpt lat="46.613630" lon="12.307550"><ele>2310.0</ele></trkpt>
      <trkpt lat="46.613880" lon="12.308230"><ele>2313.0</ele></trkpt>
      <trkpt lat="46.614360" lon="12.308540"><ele>2317.0</ele></trkpt>
      <trkpt lat="46.614850" lon="12.308710"><ele>2321.0</ele></trkpt>
      <trkpt lat="46.615680" lon="12.309520"><ele>2329.0</ele></trkpt>
      <trkpt lat="46.616660" lon="12.310040"><ele>2335.0</ele></trkpt>
      <trkpt lat="46.617110" lon="12.310510"><ele>2334.0</ele></trkpt>
      <trkpt lat="46.617560" lon="12.310860"><ele>2335.0</ele></trkpt>
      <trkpt lat="46.617740" lon="12.310920"><ele>2337.0</ele></trkpt>
      <trkpt lat="46.618390" lon="12.311950"><ele>2343.0</ele></trkpt>
      <trkpt lat="46.620310" lon="12.311990"><ele>2364.0</ele></trkpt>
      <trkpt lat="46.620590" lon="12.312470"><ele>2369.0</ele></trkpt>
      <trkpt lat="46.620710" lon="12.313130"><ele>2377.0</ele></trkpt>
      <trkpt lat="46.620940" lon="12.314460"><ele>2395.0</ele></trkpt>
      <trkpt lat="46.621100" lon="12.314860"><ele>2398.0</ele></trkpt>
      <trkpt lat="46.621650" lon="12.315020"><ele>2411.0</ele></trkpt>
      <trkpt lat="46.621780" lon="12.315150"><ele>2416.0</ele></trkpt>
      <trkpt lat="46.621830" lon="12.315170"><ele>2417.0</ele></trkpt>
      <trkpt lat="46.622690" lon="12.313630"><ele>2433.0</ele></trkpt>
      <trkpt lat="46.622700" lon="12.312900"><ele>2434.0</ele></trkpt>
      <trkpt lat="46.622380" lon="12.311630"><ele>2431.0</ele></trkpt>
      <trkpt lat="46.622630" lon="12.311470"><ele>2432.0</ele></trkpt>
      <trkpt lat="46.623140" lon="12.311750"><ele>2431.0</ele></trkpt>
      <trkpt lat="46.623650" lon="12.312130"><ele>2427.0</ele></trkpt>
      <trkpt lat="46.624110" lon="12.312590"><ele>2416.0</ele></trkpt>
      <trkpt lat="46.624630" lon="12.312970"><ele>2408.0</ele></trkpt>
      <trkpt lat="46.625380" lon="12.312690"><ele>2399.0</ele></trkpt>
      <trkpt lat="46.625770" lon="12.312800"><ele>2396.0</ele></trkpt>
      <trkpt lat="46.626200" lon="12.312610"><ele>2392.0</ele></trkpt>
      <trkpt lat="46.626720" lon="12.312180"><ele>2390.0</ele></trkpt>
      <trkpt lat="46.627430" lon="12.311430"><ele>2380.0</ele></trkpt>
      <trkpt lat="46.627960" lon="12.311340"><ele>2368.0</ele></trkpt>
      <trkpt lat="46.628280" lon="12.311110"><ele>2360.0</ele></trkpt>
      <trkpt lat="46.628790" lon="12.311010"><ele>2356.0</ele></trkpt>
      <trkpt lat="46.629370" lon="12.311000"><ele>2359.0</ele></trkpt>
      <trkpt lat="46.629880" lon="12.310830"><ele>2356.0</ele></trkpt>
      <trkpt lat="46.630390" lon="12.310560"><ele>2356.0</ele></trkpt>
      <trkpt lat="46.631450" lon="12.310630"><ele>2359.0</ele></trkpt>
      <trkpt lat="46.632520" lon="12.311210"><ele>2357.0</ele></trkpt>
      <trkpt lat="46.633080" lon="12.311390"><ele>2354.0</ele></trkpt>
      <trkpt lat="46.633620" lon="12.311740"><ele>2356.0</ele></trkpt>
      <trkpt lat="46.634200" lon="12.311880"><ele>2354.0</ele></trkpt>
      <trkpt lat="46.634590" lon="12.311600"><ele>2354.0</ele></trkpt>
      <trkpt lat="46.634720" lon="12.311280"><ele>2361.0</ele></trkpt>
      <trkpt lat="46.635140" lon="12.311160"><ele>2372.0</ele></trkpt>
      <trkpt lat="46.635170" lon="12.311220"><ele>2373.0</ele></trkpt>
      <trkpt lat="46.635430" lon="12.310950"><ele>2380.0</ele></trkpt>
      <trkpt lat="46.635760" lon="12.311010"><ele>2388.0</ele></trkpt>
      <trkpt lat="46.636300" lon="12.310980"><ele>2393.0</ele></trkpt>
      <trkpt lat="46.636590" lon="12.311050"><ele>2395.0</ele></trkpt>
      <trkpt lat="46.637110" lon="12.310850"><ele>2392.0</ele></trkpt>
      <trkpt lat="46.636660" lon="12.311150"><ele>2394.0</ele></trkpt>
      <trkpt lat="46.636280" lon="12.311450"><ele>2402.0</ele></trkpt>
      <trkpt lat="46.635940" lon="12.312300"><ele>2408.0</ele></trkpt>
      <trkpt lat="46.635620" lon="12.312780"><ele>2407.0</ele></trkpt>
      <trkpt lat="46.635290" lon="12.313100"><ele>2400.0</ele></trkpt>
      <trkpt lat="46.634850" lon="12.313330"><ele>2399.0</ele></trkpt>
      <trkpt lat="46.634440" lon="12.313270"><ele>2402.0</ele></trkpt>
      <trkpt lat="46.633820" lon="12.313310"><ele>2427.0</ele></trkpt>
      <trkpt lat="46.633530" lon="12.313500"><ele>2444.0</ele></trkpt>
      <trkpt lat="46.633280" lon="12.313610"><ele>2463.0</ele></trkpt>
      <trkpt lat="46.632950" lon="12.313810"><ele>2489.0</ele></trkpt>
      <trkpt lat="46.632720" lon="12.313890"><ele>2505.0</ele></trkpt>
      <trkpt lat="46.631760" lon="12.314280"><ele>2565.0</ele></trkpt>
      <trkpt lat="46.631300" lon="12.314450"><ele>2587.0</ele></trkpt>
      <trkpt lat="46.630960" lon="12.314640"><ele>2579.0</ele></trkpt>
      <trkpt lat="46.630460" lon="12.314950"><ele>2575.0</ele></trkpt>
      <trkpt lat="46.630260" lon="12.315060"><ele>2579.0</ele></trkpt>
      <trkpt lat="46.629990" lon="12.315590"><ele>2589.0</ele></trkpt>
      <trkpt lat="46.629560" lon="12.316120"><ele>2605.0</ele></trkpt>
      <trkpt lat="46.629780" lon="12.316270"><ele>2606.0</ele></trkpt>
      <trkpt lat="46.629840" lon="12.316700"><ele>2589.0</ele></trkpt>
      <trkpt lat="46.628870" lon="12.316660"><ele>2544.0</ele></trkpt>
      <trkpt lat="46.628400" lon="12.316120"><ele>2531.0</ele></trkpt>
      <trkpt lat="46.628110" lon="12.315810"><ele>2527.0</ele></trkpt>
      <trkpt lat="46.627610" lon="12.315410"><ele>2523.0</ele></trkpt>
      <trkpt lat="46.626900" lon="12.315330"><ele>2527.0</ele></trkpt>
      <trkpt lat="46.626280" lon="12.315330"><ele>2519.0</ele></trkpt>
      <trkpt lat="46.625850" lon="12.314920"><ele>2495.0</ele></trkpt>
      <trkpt lat="46.625660" lon="12.314710"><ele>2506.0</ele></trkpt>
      <trkpt lat="46.625160" lon="12.314640"><ele>2528.0</ele></trkpt>
      <trkpt lat="46.624630" lon="12.314940"><ele>2508.0</ele></trkpt>
      <trkpt lat="46.624400" lon="12.314940"><ele>2499.0</ele></trkpt>
      <trkpt lat="46.623920" lon="12.314600"><ele>2480.0</ele></trkpt>
      <trkpt lat="46.623550" lon="12.314580"><ele>2469.0</ele></trkpt>
      <trkpt lat="46.623480" lon="12.314280"><ele>2463.0</ele></trkpt>
      <trkpt lat="46.623480" lon="12.313570"><ele>2452.0</ele></trkpt>
      <trkpt lat="46.623480" lon="12.313010"><ele>2445.0</ele></trkpt>
      <trkpt lat="46.623200" lon="12.312630"><ele>2438.0</ele></trkpt>
      <trkpt lat="46.622560" lon="12.312130"><ele>2438.0</ele></trkpt>
      <trkpt lat="46.622750" lon="12.312880"><ele>2432.0</ele></trkpt>
      <trkpt lat="46.622680" lon="12.313640"><ele>2427.0</ele></trkpt>
      <trkpt lat="46.621930" lon="12.315140"><ele>2400.0</ele></trkpt>
      <trkpt lat="46.621280" lon="12.314880"><ele>2392.0</ele></trkpt>
      <trkpt lat="46.621030" lon="12.314880"><ele>2388.0</ele></trkpt>
      <trkpt lat="46.620940" lon="12.314770"><ele>2385.0</ele></trkpt>
      <trkpt lat="46.620510" lon="12.312500"><ele>2358.0</ele></trkpt>
      <trkpt lat="46.620340" lon="12.312240"><ele>2354.0</ele></trkpt>
      <trkpt lat="46.620290" lon="12.312030"><ele>2352.0</ele></trkpt>
      <trkpt lat="46.618470" lon="12.312000"><ele>2340.0</ele></trkpt>
      <trkpt lat="46.617740" lon="12.310890"><ele>2335.0</ele></trkpt>
      <trkpt lat="46.617510" lon="12.310870"><ele>2336.0</ele></trkpt>
      <trkpt lat="46.617110" lon="12.310420"><ele>2336.0</ele></trkpt>
      <trkpt lat="46.616640" lon="12.310010"><ele>2334.0</ele></trkpt>
      <trkpt lat="46.615810" lon="12.309560"><ele>2324.0</ele></trkpt>
      <trkpt lat="46.614840" lon="12.308700"><ele>2313.0</ele></trkpt>
      <trkpt lat="46.613930" lon="12.308380"><ele>2307.0</ele></trkpt>
      <trkpt lat="46.613540" lon="12.307460"><ele>2305.0</ele></trkpt>
      <trkpt lat="46.613500" lon="12.306750"><ele>2302.0</ele></trkpt>
      <trkpt lat="46.613560" lon="12.305500"><ele>2302.0</ele></trkpt>
      <trkpt lat="46.613590" lon="12.305270"><ele>2303.0</ele></trkpt>
      <trkpt lat="46.614220" lon="12.303890"><ele>2308.0</ele></trkpt>
      <trkpt lat="46.614150" lon="12.301450"><ele>2315.0</ele></trkpt>
      <trkpt lat="46.613650" lon="12.299020"><ele>2314.0</ele></trkpt>
      <trkpt lat="46.613500" lon="12.297500"><ele>2316.0</ele></trkpt>
      <trkpt lat="46.613220" lon="12.296770"><ele>2309.0</ele></trkpt>
      <trkpt lat="46.612080" lon="12.296530"><ele>2305.0</ele></trkpt>
      <trkpt lat="46.611850" lon="12.295680"><ele>2305.0</ele></trkpt>
    </trkseg>
  </trk>
</gpx>