<?xml version="1.0" encoding="UTF-8"?>
<gpx version="1.1" creator="Dolomitok Expedicio - Antigravity" xmlns="http://www.topografix.com/GPX/1/1">
  <metadata>
    <name>Tre Cime di Lavaredo Panoráma Körút</name>
    <desc>Klasszikus körtúra a Drei Zinnen körül</desc>
  </metadata>
  <trk>
    <name>Tre Cime di Lavaredo Panoráma Körút</name>
    <trkseg>
      <trkpt lat="46.612200" lon="12.296410"><ele>2308.8</ele></trkpt>
      <trkpt lat="46.612220" lon="12.296410"><ele>2309.1</ele></trkpt>
      <trkpt lat="46.612930" lon="12.296640"><ele>2318.0</ele></trkpt>
      <trkpt lat="46.612990" lon="12.296640"><ele>2319.3</ele></trkpt>
      <trkpt lat="46.613220" lon="12.296590"><ele>2325.7</ele></trkpt>
      <trkpt lat="46.613300" lon="12.296650"><ele>2325.8</ele></trkpt>
      <trkpt lat="46.613340" lon="12.296760"><ele>2324.0</ele></trkpt>
      <trkpt lat="46.613390" lon="12.297040"><ele>2319.5</ele></trkpt>
      <trkpt lat="46.613500" lon="12.297440"><ele>2313.0</ele></trkpt>
      <trkpt lat="46.613590" lon="12.297590"><ele>2314.9</ele></trkpt>
      <trkpt lat="46.613610" lon="12.297890"><ele>2316.5</ele></trkpt>
      <trkpt lat="46.613680" lon="12.298340"><ele>2322.0</ele></trkpt>
      <trkpt lat="46.613680" lon="12.298460"><ele>2321.9</ele></trkpt>
      <trkpt lat="46.613640" lon="12.298760"><ele>2319.0</ele></trkpt>
      <trkpt lat="46.613630" lon="12.298930"><ele>2318.2</ele></trkpt>
      <trkpt lat="46.613650" lon="12.299070"><ele>2319.3</ele></trkpt>
      <trkpt lat="46.613650" lon="12.299070"><ele>2319.3</ele></trkpt>
      <trkpt lat="46.613760" lon="12.299640"><ele>2319.3</ele></trkpt>
      <trkpt lat="46.613870" lon="12.299910"><ele>2321.7</ele></trkpt>
      <trkpt lat="46.614160" lon="12.300910"><ele>2321.7</ele></trkpt>
      <trkpt lat="46.614210" lon="12.301370"><ele>2319.1</ele></trkpt>
      <trkpt lat="46.614260" lon="12.301630"><ele>2318.8</ele></trkpt>
      <trkpt lat="46.614270" lon="12.301900"><ele>2318.3</ele></trkpt>
      <trkpt lat="46.614260" lon="12.302190"><ele>2316.9</ele></trkpt>
      <trkpt lat="46.614210" lon="12.302450"><ele>2313.5</ele></trkpt>
      <trkpt lat="46.614190" lon="12.303030"><ele>2309.1</ele></trkpt>
      <trkpt lat="46.614200" lon="12.303570"><ele>2309.4</ele></trkpt>
      <trkpt lat="46.614200" lon="12.303800"><ele>2310.8</ele></trkpt>
      <trkpt lat="46.614180" lon="12.304010"><ele>2310.9</ele></trkpt>
      <trkpt lat="46.614160" lon="12.304160"><ele>2310.6</ele></trkpt>
      <trkpt lat="46.614110" lon="12.304310"><ele>2310.5</ele></trkpt>
      <trkpt lat="46.614020" lon="12.304480"><ele>2308.9</ele></trkpt>
      <trkpt lat="46.613790" lon="12.304770"><ele>2303.0</ele></trkpt>
      <trkpt lat="46.613620" lon="12.304900"><ele>2297.5</ele></trkpt>
      <trkpt lat="46.613590" lon="12.304960"><ele>2297.4</ele></trkpt>
      <trkpt lat="46.613580" lon="12.305040"><ele>2298.4</ele></trkpt>
      <trkpt lat="46.613630" lon="12.305440"><ele>2306.8</ele></trkpt>
      <trkpt lat="46.613620" lon="12.305560"><ele>2308.1</ele></trkpt>
      <trkpt lat="46.613550" lon="12.305830"><ele>2308.6</ele></trkpt>
      <trkpt lat="46.613540" lon="12.306100"><ele>2308.3</ele></trkpt>
      <trkpt lat="46.613550" lon="12.306400"><ele>2309.0</ele></trkpt>
      <trkpt lat="46.613500" lon="12.306530"><ele>2306.9</ele></trkpt>
      <trkpt lat="46.613470" lon="12.306660"><ele>2305.7</ele></trkpt>
      <trkpt lat="46.613470" lon="12.306790"><ele>2305.4</ele></trkpt>
      <trkpt lat="46.613510" lon="12.306980"><ele>2306.6</ele></trkpt>
      <trkpt lat="46.613500" lon="12.307110"><ele>2305.8</ele></trkpt>
      <trkpt lat="46.613510" lon="12.307300"><ele>2305.7</ele></trkpt>
      <trkpt lat="46.613580" lon="12.307480"><ele>2307.7</ele></trkpt>
      <trkpt lat="46.613750" lon="12.307840"><ele>2311.1</ele></trkpt>
      <trkpt lat="46.613900" lon="12.308320"><ele>2311.4</ele></trkpt>
      <trkpt lat="46.613970" lon="12.308430"><ele>2310.3</ele></trkpt>
      <trkpt lat="46.614080" lon="12.308490"><ele>2311.1</ele></trkpt>
      <trkpt lat="46.614200" lon="12.308480"><ele>2314.3</ele></trkpt>
      <trkpt lat="46.614460" lon="12.308590"><ele>2318.7</ele></trkpt>
      <trkpt lat="46.614880" lon="12.308700"><ele>2327.1</ele></trkpt>
      <trkpt lat="46.615010" lon="12.308800"><ele>2326.8</ele></trkpt>
      <trkpt lat="46.615100" lon="12.308850"><ele>2328.4</ele></trkpt>
      <trkpt lat="46.615160" lon="12.308920"><ele>2328.1</ele></trkpt>
      <trkpt lat="46.615350" lon="12.309260"><ele>2324.1</ele></trkpt>
      <trkpt lat="46.615580" lon="12.309500"><ele>2325.4</ele></trkpt>
      <trkpt lat="46.615730" lon="12.309580"><ele>2327.9</ele></trkpt>
      <trkpt lat="46.615730" lon="12.309580"><ele>2327.9</ele></trkpt>
      <trkpt lat="46.615880" lon="12.309670"><ele>2329.3</ele></trkpt>
      <trkpt lat="46.616350" lon="12.309850"><ele>2336.2</ele></trkpt>
      <trkpt lat="46.616450" lon="12.309940"><ele>2335.7</ele></trkpt>
      <trkpt lat="46.616580" lon="12.309970"><ele>2338.5</ele></trkpt>
      <trkpt lat="46.617000" lon="12.310430"><ele>2336.1</ele></trkpt>
      <trkpt lat="46.617230" lon="12.310650"><ele>2334.5</ele></trkpt>
      <trkpt lat="46.617560" lon="12.310880"><ele>2335.2</ele></trkpt>
      <trkpt lat="46.617760" lon="12.310970"><ele>2339.2</ele></trkpt>
      <trkpt lat="46.617840" lon="12.311060"><ele>2340.4</ele></trkpt>
      <trkpt lat="46.618020" lon="12.311350"><ele>2342.1</ele></trkpt>
      <trkpt lat="46.618150" lon="12.311450"><ele>2343.7</ele></trkpt>
      <trkpt lat="46.618290" lon="12.311780"><ele>2344.5</ele></trkpt>
      <trkpt lat="46.618430" lon="12.311970"><ele>2345.8</ele></trkpt>
      <trkpt lat="46.618520" lon="12.312040"><ele>2346.2</ele></trkpt>
      <trkpt lat="46.618700" lon="12.312030"><ele>2346.9</ele></trkpt>
      <trkpt lat="46.618770" lon="12.311980"><ele>2347.1</ele></trkpt>
      <trkpt lat="46.619110" lon="12.311950"><ele>2348.5</ele></trkpt>
      <trkpt lat="46.619450" lon="12.311880"><ele>2352.7</ele></trkpt>
      <trkpt lat="46.619590" lon="12.311930"><ele>2354.6</ele></trkpt>
      <trkpt lat="46.619590" lon="12.311930"><ele>2354.6</ele></trkpt>
      <trkpt lat="46.619700" lon="12.311970"><ele>2356.0</ele></trkpt>
      <trkpt lat="46.620050" lon="12.311970"><ele>2361.3</ele></trkpt>
      <trkpt lat="46.620120" lon="12.311940"><ele>2363.3</ele></trkpt>
      <trkpt lat="46.620450" lon="12.312040"><ele>2370.5</ele></trkpt>
      <trkpt lat="46.620490" lon="12.312120"><ele>2370.7</ele></trkpt>
      <trkpt lat="46.620520" lon="12.312340"><ele>2369.5</ele></trkpt>
      <trkpt lat="46.620590" lon="12.312480"><ele>2370.0</ele></trkpt>
      <trkpt lat="46.620590" lon="12.312670"><ele>2370.8</ele></trkpt>
      <trkpt lat="46.620700" lon="12.313030"><ele>2375.4</ele></trkpt>
      <trkpt lat="46.620710" lon="12.313110"><ele>2376.0</ele></trkpt>
      <trkpt lat="46.620700" lon="12.313190"><ele>2376.2</ele></trkpt>
      <trkpt lat="46.620650" lon="12.313340"><ele>2375.9</ele></trkpt>
      <trkpt lat="46.620620" lon="12.313500"><ele>2377.6</ele></trkpt>
      <trkpt lat="46.620590" lon="12.313900"><ele>2382.9</ele></trkpt>
      <trkpt lat="46.620540" lon="12.314140"><ele>2385.7</ele></trkpt>
      <trkpt lat="46.620560" lon="12.314230"><ele>2386.7</ele></trkpt>
      <trkpt lat="46.620730" lon="12.314410"><ele>2390.1</ele></trkpt>
      <trkpt lat="46.620890" lon="12.314480"><ele>2392.6</ele></trkpt>
      <trkpt lat="46.621010" lon="12.314460"><ele>2394.5</ele></trkpt>
      <trkpt lat="46.621240" lon="12.314330"><ele>2397.5</ele></trkpt>
      <trkpt lat="46.621300" lon="12.314330"><ele>2398.4</ele></trkpt>
      <trkpt lat="46.621330" lon="12.314360"><ele>2399.0</ele></trkpt>
      <trkpt lat="46.621400" lon="12.314480"><ele>2400.7</ele></trkpt>
      <trkpt lat="46.621450" lon="12.314730"><ele>2402.7</ele></trkpt>
      <trkpt lat="46.621540" lon="12.314890"><ele>2405.1</ele></trkpt>
      <trkpt lat="46.621610" lon="12.314990"><ele>2406.9</ele></trkpt>
      <trkpt lat="46.621810" lon="12.315160"><ele>2414.6</ele></trkpt>
      <trkpt lat="46.621850" lon="12.315160"><ele>2416.5</ele></trkpt>
      <trkpt lat="46.621900" lon="12.315100"><ele>2418.8</ele></trkpt>
      <trkpt lat="46.622010" lon="12.314810"><ele>2421.8</ele></trkpt>
      <trkpt lat="46.622010" lon="12.314810"><ele>2421.8</ele></trkpt>
      <trkpt lat="46.622070" lon="12.314680"><ele>2423.0</ele></trkpt>
      <trkpt lat="46.622300" lon="12.314300"><ele>2427.6</ele></trkpt>
      <trkpt lat="46.622410" lon="12.314080"><ele>2429.0</ele></trkpt>
      <trkpt lat="46.622700" lon="12.313630"><ele>2436.5</ele></trkpt>
      <trkpt lat="46.622760" lon="12.313480"><ele>2437.3</ele></trkpt>
      <trkpt lat="46.622780" lon="12.313320"><ele>2436.4</ele></trkpt>
      <trkpt lat="46.622670" lon="12.312810"><ele>2434.2</ele></trkpt>
      <trkpt lat="46.622690" lon="12.312520"><ele>2435.8</ele></trkpt>
      <trkpt lat="46.622680" lon="12.312450"><ele>2435.4</ele></trkpt>
      <trkpt lat="46.622450" lon="12.311990"><ele>2430.6</ele></trkpt>
      <trkpt lat="46.622380" lon="12.311760"><ele>2429.3</ele></trkpt>
      <trkpt lat="46.622360" lon="12.311650"><ele>2429.0</ele></trkpt>
      <trkpt lat="46.622370" lon="12.311570"><ele>2428.7</ele></trkpt>
      <trkpt lat="46.622390" lon="12.311500"><ele>2428.5</ele></trkpt>
      <trkpt lat="46.622500" lon="12.311450"><ele>2429.4</ele></trkpt>
      <trkpt lat="46.622620" lon="12.311470"><ele>2428.2</ele></trkpt>
      <trkpt lat="46.623110" lon="12.311760"><ele>2430.1</ele></trkpt>
      <trkpt lat="46.623270" lon="12.311840"><ele>2431.6</ele></trkpt>
      <trkpt lat="46.623550" lon="12.312070"><ele>2429.5</ele></trkpt>
      <trkpt lat="46.623550" lon="12.312070"><ele>2429.5</ele></trkpt>
      <trkpt lat="46.623630" lon="12.312130"><ele>2428.0</ele></trkpt>
      <trkpt lat="46.623760" lon="12.312240"><ele>2426.1</ele></trkpt>
      <trkpt lat="46.623770" lon="12.312320"><ele>2427.9</ele></trkpt>
      <trkpt lat="46.623840" lon="12.312450"><ele>2428.8</ele></trkpt>
      <trkpt lat="46.623850" lon="12.312570"><ele>2431.1</ele></trkpt>
      <trkpt lat="46.623980" lon="12.313020"><ele>2435.5</ele></trkpt>
      <trkpt lat="46.624040" lon="12.313170"><ele>2436.9</ele></trkpt>
      <trkpt lat="46.624090" lon="12.313240"><ele>2437.0</ele></trkpt>
      <trkpt lat="46.624170" lon="12.313460"><ele>2441.5</ele></trkpt>
      <trkpt lat="46.624250" lon="12.313620"><ele>2446.2</ele></trkpt>
      <trkpt lat="46.624700" lon="12.313720"><ele>2443.9</ele></trkpt>
      <trkpt lat="46.624980" lon="12.313700"><ele>2439.5</ele></trkpt>
      <trkpt lat="46.624980" lon="12.313700"><ele>2439.5</ele></trkpt>
      <trkpt lat="46.625240" lon="12.313670"><ele>2437.6</ele></trkpt>
      <trkpt lat="46.625400" lon="12.313700"><ele>2438.4</ele></trkpt>
      <trkpt lat="46.625670" lon="12.313710"><ele>2438.4</ele></trkpt>
      <trkpt lat="46.625890" lon="12.313690"><ele>2436.4</ele></trkpt>
      <trkpt lat="46.626750" lon="12.313530"><ele>2418.0</ele></trkpt>
      <trkpt lat="46.626820" lon="12.313550"><ele>2417.9</ele></trkpt>
      <trkpt lat="46.626870" lon="12.313510"><ele>2415.5</ele></trkpt>
      <trkpt lat="46.626950" lon="12.313490"><ele>2413.6</ele></trkpt>
      <trkpt lat="46.627210" lon="12.313590"><ele>2413.2</ele></trkpt>
      <trkpt lat="46.627530" lon="12.313600"><ele>2409.0</ele></trkpt>
      <trkpt lat="46.627790" lon="12.313630"><ele>2412.3</ele></trkpt>
      <trkpt lat="46.628350" lon="12.313610"><ele>2417.5</ele></trkpt>
      <trkpt lat="46.628720" lon="12.313570"><ele>2427.7</ele></trkpt>
      <trkpt lat="46.628960" lon="12.313430"><ele>2430.5</ele></trkpt>
      <trkpt lat="46.629280" lon="12.313140"><ele>2429.4</ele></trkpt>
      <trkpt lat="46.629280" lon="12.313140"><ele>2429.4</ele></trkpt>
      <trkpt lat="46.629480" lon="12.312950"><ele>2429.2</ele></trkpt>
      <trkpt lat="46.629520" lon="12.312870"><ele>2427.1</ele></trkpt>
      <trkpt lat="46.629740" lon="12.312780"><ele>2433.2</ele></trkpt>
      <trkpt lat="46.630030" lon="12.312530"><ele>2434.7</ele></trkpt>
      <trkpt lat="46.630620" lon="12.311760"><ele>2418.4</ele></trkpt>
      <trkpt lat="46.630780" lon="12.311860"><ele>2428.5</ele></trkpt>
      <trkpt lat="46.630890" lon="12.311780"><ele>2425.0</ele></trkpt>
      <trkpt lat="46.631160" lon="12.311840"><ele>2426.3</ele></trkpt>
      <trkpt lat="46.631360" lon="12.311850"><ele>2425.3</ele></trkpt>
      <trkpt lat="46.631520" lon="12.311830"><ele>2422.6</ele></trkpt>
      <trkpt lat="46.631700" lon="12.311890"><ele>2424.8</ele></trkpt>
      <trkpt lat="46.632340" lon="12.311910"><ele>2404.2</ele></trkpt>
      <trkpt lat="46.632450" lon="12.312000"><ele>2405.6</ele></trkpt>
      <trkpt lat="46.632680" lon="12.312050"><ele>2400.9</ele></trkpt>
      <trkpt lat="46.632740" lon="12.312150"><ele>2404.6</ele></trkpt>
      <trkpt lat="46.632910" lon="12.312100"><ele>2396.4</ele></trkpt>
      <trkpt lat="46.632970" lon="12.312170"><ele>2398.4</ele></trkpt>
      <trkpt lat="46.633130" lon="12.312150"><ele>2392.2</ele></trkpt>
      <trkpt lat="46.633420" lon="12.312400"><ele>2397.6</ele></trkpt>
      <trkpt lat="46.633560" lon="12.312440"><ele>2396.7</ele></trkpt>
      <trkpt lat="46.633560" lon="12.312440"><ele>2396.7</ele></trkpt>
      <trkpt lat="46.633820" lon="12.312510"><ele>2394.2</ele></trkpt>
      <trkpt lat="46.633990" lon="12.312580"><ele>2392.1</ele></trkpt>
      <trkpt lat="46.634420" lon="12.312580"><ele>2394.4</ele></trkpt>
      <trkpt lat="46.634650" lon="12.312390"><ele>2396.1</ele></trkpt>
      <trkpt lat="46.634920" lon="12.312250"><ele>2398.9</ele></trkpt>
      <trkpt lat="46.634930" lon="12.312140"><ele>2394.9</ele></trkpt>
      <trkpt lat="46.635000" lon="12.312070"><ele>2394.5</ele></trkpt>
      <trkpt lat="46.635130" lon="12.311840"><ele>2388.0</ele></trkpt>
      <trkpt lat="46.635420" lon="12.311720"><ele>2389.7</ele></trkpt>
      <trkpt lat="46.635740" lon="12.311760"><ele>2397.2</ele></trkpt>
      <trkpt lat="46.635940" lon="12.311720"><ele>2397.0</ele></trkpt>
      <trkpt lat="46.636090" lon="12.311630"><ele>2394.6</ele></trkpt>
      <trkpt lat="46.636290" lon="12.311570"><ele>2392.9</ele></trkpt>
      <trkpt lat="46.636290" lon="12.311570"><ele>2392.9</ele></trkpt>
      <trkpt lat="46.636460" lon="12.311520"><ele>2392.0</ele></trkpt>
      <trkpt lat="46.636560" lon="12.311450"><ele>2391.9</ele></trkpt>
      <trkpt lat="46.636670" lon="12.311260"><ele>2392.9</ele></trkpt>
      <trkpt lat="46.636760" lon="12.311060"><ele>2394.5</ele></trkpt>
      <trkpt lat="46.636850" lon="12.310950"><ele>2395.8</ele></trkpt>
      <trkpt lat="46.636900" lon="12.310840"><ele>2397.3</ele></trkpt>
      <trkpt lat="46.636820" lon="12.310740"><ele>2397.4</ele></trkpt>
      <trkpt lat="46.636820" lon="12.310740"><ele>2397.4</ele></trkpt>
      <trkpt lat="46.636760" lon="12.310650"><ele>2397.2</ele></trkpt>
      <trkpt lat="46.636860" lon="12.310290"><ele>2400.2</ele></trkpt>
      <trkpt lat="46.636860" lon="12.310290"><ele>2400.2</ele></trkpt>
      <trkpt lat="46.636880" lon="12.310220"><ele>2401.0</ele></trkpt>
      <trkpt lat="46.637070" lon="12.310320"><ele>2403.8</ele></trkpt>
      <trkpt lat="46.637100" lon="12.310420"><ele>2403.2</ele></trkpt>
      <trkpt lat="46.637050" lon="12.310590"><ele>2400.7</ele></trkpt>
      <trkpt lat="46.636980" lon="12.310740"><ele>2398.7</ele></trkpt>
      <trkpt lat="46.637180" lon="12.310500"><ele>2403.4</ele></trkpt>
      <trkpt lat="46.637340" lon="12.310360"><ele>2408.0</ele></trkpt>
      <trkpt lat="46.637380" lon="12.310290"><ele>2409.9</ele></trkpt>
      <trkpt lat="46.637380" lon="12.310290"><ele>2409.9</ele></trkpt>
      <trkpt lat="46.637430" lon="12.310180"><ele>2412.9</ele></trkpt>
      <trkpt lat="46.637630" lon="12.310040"><ele>2421.6</ele></trkpt>
      <trkpt lat="46.637660" lon="12.309930"><ele>2423.9</ele></trkpt>
      <trkpt lat="46.637690" lon="12.309890"><ele>2425.3</ele></trkpt>
      <trkpt lat="46.637790" lon="12.309930"><ele>2428.7</ele></trkpt>
      <trkpt lat="46.637820" lon="12.309820"><ele>2430.8</ele></trkpt>
      <trkpt lat="46.637940" lon="12.309890"><ele>2434.7</ele></trkpt>
      <trkpt lat="46.637940" lon="12.309810"><ele>2435.7</ele></trkpt>
      <trkpt lat="46.637970" lon="12.309790"><ele>2437.2</ele></trkpt>
      <trkpt lat="46.638010" lon="12.309530"><ele>2442.5</ele></trkpt>
      <trkpt lat="46.638140" lon="12.309230"><ele>2454.0</ele></trkpt>
      <trkpt lat="46.638170" lon="12.309250"><ele>2455.2</ele></trkpt>
      <trkpt lat="46.638200" lon="12.309100"><ele>2457.9</ele></trkpt>
      <trkpt lat="46.638200" lon="12.309100"><ele>2457.9</ele></trkpt>
      <trkpt lat="46.638170" lon="12.309250"><ele>2455.2</ele></trkpt>
      <trkpt lat="46.638140" lon="12.309230"><ele>2454.0</ele></trkpt>
      <trkpt lat="46.638010" lon="12.309530"><ele>2442.5</ele></trkpt>
      <trkpt lat="46.637970" lon="12.309790"><ele>2437.2</ele></trkpt>
      <trkpt lat="46.637940" lon="12.309810"><ele>2435.7</ele></trkpt>
      <trkpt lat="46.637940" lon="12.309890"><ele>2434.7</ele></trkpt>
      <trkpt lat="46.637820" lon="12.309820"><ele>2430.8</ele></trkpt>
      <trkpt lat="46.637790" lon="12.309930"><ele>2428.7</ele></trkpt>
      <trkpt lat="46.637690" lon="12.309890"><ele>2425.3</ele></trkpt>
      <trkpt lat="46.637660" lon="12.309930"><ele>2423.9</ele></trkpt>
      <trkpt lat="46.637630" lon="12.310040"><ele>2421.6</ele></trkpt>
      <trkpt lat="46.637430" lon="12.310180"><ele>2412.9</ele></trkpt>
      <trkpt lat="46.637340" lon="12.310360"><ele>2408.0</ele></trkpt>
      <trkpt lat="46.637180" lon="12.310500"><ele>2403.4</ele></trkpt>
      <trkpt lat="46.636980" lon="12.310740"><ele>2398.7</ele></trkpt>
      <trkpt lat="46.637050" lon="12.310590"><ele>2400.7</ele></trkpt>
      <trkpt lat="46.637100" lon="12.310420"><ele>2403.2</ele></trkpt>
      <trkpt lat="46.637070" lon="12.310320"><ele>2403.8</ele></trkpt>
      <trkpt lat="46.637220" lon="12.309880"><ele>2411.1</ele></trkpt>
      <trkpt lat="46.637300" lon="12.309350"><ele>2413.9</ele></trkpt>
      <trkpt lat="46.637340" lon="12.309010"><ele>2414.0</ele></trkpt>
      <trkpt lat="46.637310" lon="12.308590"><ele>2410.3</ele></trkpt>
      <trkpt lat="46.637360" lon="12.308390"><ele>2410.1</ele></trkpt>
      <trkpt lat="46.637340" lon="12.308150"><ele>2406.4</ele></trkpt>
      <trkpt lat="46.637320" lon="12.308060"><ele>2404.6</ele></trkpt>
      <trkpt lat="46.637260" lon="12.308030"><ele>2402.8</ele></trkpt>
      <trkpt lat="46.637190" lon="12.308040"><ele>2401.4</ele></trkpt>
      <trkpt lat="46.637050" lon="12.308000"><ele>2397.7</ele></trkpt>
      <trkpt lat="46.637050" lon="12.308000"><ele>2397.7</ele></trkpt>
      <trkpt lat="46.636850" lon="12.307910"><ele>2392.0</ele></trkpt>
      <trkpt lat="46.636450" lon="12.307880"><ele>2382.0</ele></trkpt>
      <trkpt lat="46.636290" lon="12.307840"><ele>2377.5</ele></trkpt>
      <trkpt lat="46.636180" lon="12.307860"><ele>2374.9</ele></trkpt>
      <trkpt lat="46.635960" lon="12.307970"><ele>2370.2</ele></trkpt>
      <trkpt lat="46.635870" lon="12.307960"><ele>2367.8</ele></trkpt>
      <trkpt lat="46.635800" lon="12.308060"><ele>2366.1</ele></trkpt>
      <trkpt lat="46.635710" lon="12.308100"><ele>2362.1</ele></trkpt>
      <trkpt lat="46.635680" lon="12.308170"><ele>2361.4</ele></trkpt>
      <trkpt lat="46.635670" lon="12.308230"><ele>2361.5</ele></trkpt>
      <trkpt lat="46.635480" lon="12.308480"><ele>2354.3</ele></trkpt>
      <trkpt lat="46.635470" lon="12.308520"><ele>2354.0</ele></trkpt>
      <trkpt lat="46.635480" lon="12.308970"><ele>2355.9</ele></trkpt>
      <trkpt lat="46.635450" lon="12.309130"><ele>2355.0</ele></trkpt>
      <trkpt lat="46.635450" lon="12.309630"><ele>2359.2</ele></trkpt>
      <trkpt lat="46.635360" lon="12.310000"><ele>2358.6</ele></trkpt>
      <trkpt lat="46.635270" lon="12.310290"><ele>2358.2</ele></trkpt>
      <trkpt lat="46.635160" lon="12.310430"><ele>2355.5</ele></trkpt>
      <trkpt lat="46.635160" lon="12.310430"><ele>2355.5</ele></trkpt>
      <trkpt lat="46.635080" lon="12.310540"><ele>2353.9</ele></trkpt>
      <trkpt lat="46.634980" lon="12.310830"><ele>2354.3</ele></trkpt>
      <trkpt lat="46.634910" lon="12.310990"><ele>2356.5</ele></trkpt>
      <trkpt lat="46.634780" lon="12.311120"><ele>2355.8</ele></trkpt>
      <trkpt lat="46.634730" lon="12.311150"><ele>2354.9</ele></trkpt>
      <trkpt lat="46.634690" lon="12.311080"><ele>2351.6</ele></trkpt>
      <trkpt lat="46.634650" lon="12.310780"><ele>2342.4</ele></trkpt>
      <trkpt lat="46.634600" lon="12.310690"><ele>2339.4</ele></trkpt>
      <trkpt lat="46.634570" lon="12.310550"><ele>2336.3</ele></trkpt>
      <trkpt lat="46.634550" lon="12.310370"><ele>2332.9</ele></trkpt>
      <trkpt lat="46.634550" lon="12.310110"><ele>2329.0</ele></trkpt>
      <trkpt lat="46.634570" lon="12.309970"><ele>2327.8</ele></trkpt>
      <trkpt lat="46.634570" lon="12.309970"><ele>2327.8</ele></trkpt>
      <trkpt lat="46.634610" lon="12.309790"><ele>2327.9</ele></trkpt>
      <trkpt lat="46.634640" lon="12.309530"><ele>2326.9</ele></trkpt>
      <trkpt lat="46.634690" lon="12.309420"><ele>2327.5</ele></trkpt>
      <trkpt lat="46.634690" lon="12.309340"><ele>2326.9</ele></trkpt>
      <trkpt lat="46.634630" lon="12.309120"><ele>2323.6</ele></trkpt>
      <trkpt lat="46.634630" lon="12.308870"><ele>2322.8</ele></trkpt>
      <trkpt lat="46.634580" lon="12.308840"><ele>2321.2</ele></trkpt>
      <trkpt lat="46.634510" lon="12.308870"><ele>2319.3</ele></trkpt>
      <trkpt lat="46.634490" lon="12.308850"><ele>2318.7</ele></trkpt>
      <trkpt lat="46.634490" lon="12.308790"><ele>2318.5</ele></trkpt>
      <trkpt lat="46.634470" lon="12.308740"><ele>2317.7</ele></trkpt>
      <trkpt lat="46.634330" lon="12.308730"><ele>2313.6</ele></trkpt>
      <trkpt lat="46.634110" lon="12.308550"><ele>2307.6</ele></trkpt>
      <trkpt lat="46.633940" lon="12.308280"><ele>2304.3</ele></trkpt>
      <trkpt lat="46.633900" lon="12.308200"><ele>2302.4</ele></trkpt>
      <trkpt lat="46.633890" lon="12.308130"><ele>2300.9</ele></trkpt>
      <trkpt lat="46.633860" lon="12.308070"><ele>2299.4</ele></trkpt>
      <trkpt lat="46.633740" lon="12.308020"><ele>2297.5</ele></trkpt>
      <trkpt lat="46.633550" lon="12.308120"><ele>2298.2</ele></trkpt>
      <trkpt lat="46.633410" lon="12.308030"><ele>2295.4</ele></trkpt>
      <trkpt lat="46.633410" lon="12.308030"><ele>2295.4</ele></trkpt>
      <trkpt lat="46.633310" lon="12.307820"><ele>2290.2</ele></trkpt>
      <trkpt lat="46.633280" lon="12.307800"><ele>2289.3</ele></trkpt>
      <trkpt lat="46.633220" lon="12.307830"><ele>2288.9</ele></trkpt>
      <trkpt lat="46.633190" lon="12.307810"><ele>2288.0</ele></trkpt>
      <trkpt lat="46.633150" lon="12.307730"><ele>2285.6</ele></trkpt>
      <trkpt lat="46.633060" lon="12.307730"><ele>2284.1</ele></trkpt>
      <trkpt lat="46.632910" lon="12.307630"><ele>2279.1</ele></trkpt>
      <trkpt lat="46.632820" lon="12.307660"><ele>2278.2</ele></trkpt>
      <trkpt lat="46.632770" lon="12.307710"><ele>2278.7</ele></trkpt>
      <trkpt lat="46.632740" lon="12.307790"><ele>2280.3</ele></trkpt>
      <trkpt lat="46.632680" lon="12.307770"><ele>2278.7</ele></trkpt>
      <trkpt lat="46.632610" lon="12.307820"><ele>2279.0</ele></trkpt>
      <trkpt lat="46.632410" lon="12.307830"><ele>2275.6</ele></trkpt>
      <trkpt lat="46.632400" lon="12.307810"><ele>2274.8</ele></trkpt>
      <trkpt lat="46.632400" lon="12.307790"><ele>2274.2</ele></trkpt>
      <trkpt lat="46.632510" lon="12.307640"><ele>2272.2</ele></trkpt>
      <trkpt lat="46.632230" lon="12.307650"><ele>2266.7</ele></trkpt>
      <trkpt lat="46.632210" lon="12.307640"><ele>2266.0</ele></trkpt>
      <trkpt lat="46.632220" lon="12.307620"><ele>2265.7</ele></trkpt>
      <trkpt lat="46.632350" lon="12.307440"><ele>2263.0</ele></trkpt>
      <trkpt lat="46.632480" lon="12.307240"><ele>2258.4</ele></trkpt>
      <trkpt lat="46.632490" lon="12.307210"><ele>2257.4</ele></trkpt>
      <trkpt lat="46.632240" lon="12.307230"><ele>2254.6</ele></trkpt>
      <trkpt lat="46.632240" lon="12.307230"><ele>2254.6</ele></trkpt>
      <trkpt lat="46.632140" lon="12.307230"><ele>2253.2</ele></trkpt>
      <trkpt lat="46.632120" lon="12.307200"><ele>2252.1</ele></trkpt>
      <trkpt lat="46.632090" lon="12.306960"><ele>2245.3</ele></trkpt>
      <trkpt lat="46.632070" lon="12.306920"><ele>2244.1</ele></trkpt>
      <trkpt lat="46.631930" lon="12.306870"><ele>2242.0</ele></trkpt>
      <trkpt lat="46.631810" lon="12.306700"><ele>2237.8</ele></trkpt>
      <trkpt lat="46.631580" lon="12.306670"><ele>2236.4</ele></trkpt>
      <trkpt lat="46.631410" lon="12.306520"><ele>2233.3</ele></trkpt>
      <trkpt lat="46.631350" lon="12.306500"><ele>2232.4</ele></trkpt>
      <trkpt lat="46.631280" lon="12.306510"><ele>2231.7</ele></trkpt>
      <trkpt lat="46.631220" lon="12.306560"><ele>2231.9</ele></trkpt>
      <trkpt lat="46.630930" lon="12.306650"><ele>2231.3</ele></trkpt>
      <trkpt lat="46.630920" lon="12.306570"><ele>2229.2</ele></trkpt>
      <trkpt lat="46.630810" lon="12.306400"><ele>2223.4</ele></trkpt>
      <trkpt lat="46.630810" lon="12.306350"><ele>2222.0</ele></trkpt>
      <trkpt lat="46.630910" lon="12.306150"><ele>2218.3</ele></trkpt>
      <trkpt lat="46.630950" lon="12.305830"><ele>2211.3</ele></trkpt>
      <trkpt lat="46.630990" lon="12.305690"><ele>2208.2</ele></trkpt>
      <trkpt lat="46.631200" lon="12.305330"><ele>2203.2</ele></trkpt>
      <trkpt lat="46.631200" lon="12.305330"><ele>2203.2</ele></trkpt>
      <trkpt lat="46.631330" lon="12.305110"><ele>2200.1</ele></trkpt>
      <trkpt lat="46.631540" lon="12.304850"><ele>2198.4</ele></trkpt>
      <trkpt lat="46.631610" lon="12.304720"><ele>2196.3</ele></trkpt>
      <trkpt lat="46.631700" lon="12.304620"><ele>2194.9</ele></trkpt>
      <trkpt lat="46.631800" lon="12.304340"><ele>2187.5</ele></trkpt>
      <trkpt lat="46.631940" lon="12.304090"><ele>2183.2</ele></trkpt>
      <trkpt lat="46.631940" lon="12.304040"><ele>2182.7</ele></trkpt>
      <trkpt lat="46.631900" lon="12.304040"><ele>2182.3</ele></trkpt>
      <trkpt lat="46.631710" lon="12.304220"><ele>2183.1</ele></trkpt>
      <trkpt lat="46.631170" lon="12.304190"><ele>2175.5</ele></trkpt>
      <trkpt lat="46.631060" lon="12.304220"><ele>2174.7</ele></trkpt>
      <trkpt lat="46.630780" lon="12.303910"><ele>2171.8</ele></trkpt>
      <trkpt lat="46.630550" lon="12.303600"><ele>2179.6</ele></trkpt>
      <trkpt lat="46.630410" lon="12.303360"><ele>2186.5</ele></trkpt>
      <trkpt lat="46.630370" lon="12.303220"><ele>2188.8</ele></trkpt>
      <trkpt lat="46.630370" lon="12.303220"><ele>2188.8</ele></trkpt>
      <trkpt lat="46.630350" lon="12.302970"><ele>2190.4</ele></trkpt>
      <trkpt lat="46.630370" lon="12.302710"><ele>2190.3</ele></trkpt>
      <trkpt lat="46.630340" lon="12.302460"><ele>2192.6</ele></trkpt>
      <trkpt lat="46.630280" lon="12.302230"><ele>2196.8</ele></trkpt>
      <trkpt lat="46.630190" lon="12.301950"><ele>2203.0</ele></trkpt>
      <trkpt lat="46.630120" lon="12.301670"><ele>2208.4</ele></trkpt>
      <trkpt lat="46.630110" lon="12.301500"><ele>2212.2</ele></trkpt>
      <trkpt lat="46.630130" lon="12.300840"><ele>2223.5</ele></trkpt>
      <trkpt lat="46.630150" lon="12.300170"><ele>2229.8</ele></trkpt>
      <trkpt lat="46.630140" lon="12.300030"><ele>2232.2</ele></trkpt>
      <trkpt lat="46.630050" lon="12.299640"><ele>2242.3</ele></trkpt>
      <trkpt lat="46.629930" lon="12.299280"><ele>2252.1</ele></trkpt>
      <trkpt lat="46.629910" lon="12.299160"><ele>2253.8</ele></trkpt>
      <trkpt lat="46.629920" lon="12.299050"><ele>2253.6</ele></trkpt>
      <trkpt lat="46.629990" lon="12.298750"><ele>2251.4</ele></trkpt>
      <trkpt lat="46.629980" lon="12.298600"><ele>2252.1</ele></trkpt>
      <trkpt lat="46.629850" lon="12.298160"><ele>2255.6</ele></trkpt>
      <trkpt lat="46.629860" lon="12.297710"><ele>2250.9</ele></trkpt>
      <trkpt lat="46.629810" lon="12.297490"><ele>2250.9</ele></trkpt>
      <trkpt lat="46.629750" lon="12.297350"><ele>2251.7</ele></trkpt>
      <trkpt lat="46.629670" lon="12.297290"><ele>2254.4</ele></trkpt>
      <trkpt lat="46.629590" lon="12.297110"><ele>2255.8</ele></trkpt>
      <trkpt lat="46.629550" lon="12.296970"><ele>2255.9</ele></trkpt>
      <trkpt lat="46.629530" lon="12.296810"><ele>2255.0</ele></trkpt>
      <trkpt lat="46.629440" lon="12.296610"><ele>2257.5</ele></trkpt>
      <trkpt lat="46.629390" lon="12.296250"><ele>2259.4</ele></trkpt>
      <trkpt lat="46.629350" lon="12.296140"><ele>2260.9</ele></trkpt>
      <trkpt lat="46.629140" lon="12.295760"><ele>2267.2</ele></trkpt>
      <trkpt lat="46.629030" lon="12.295620"><ele>2268.0</ele></trkpt>
      <trkpt lat="46.628990" lon="12.295510"><ele>2268.1</ele></trkpt>
      <trkpt lat="46.629010" lon="12.295410"><ele>2267.5</ele></trkpt>
      <trkpt lat="46.628970" lon="12.295230"><ele>2267.1</ele></trkpt>
      <trkpt lat="46.629000" lon="12.295090"><ele>2266.3</ele></trkpt>
      <trkpt lat="46.628980" lon="12.295010"><ele>2266.2</ele></trkpt>
      <trkpt lat="46.628770" lon="12.294670"><ele>2265.2</ele></trkpt>
      <trkpt lat="46.628490" lon="12.294370"><ele>2265.1</ele></trkpt>
      <trkpt lat="46.628120" lon="12.294270"><ele>2264.7</ele></trkpt>
      <trkpt lat="46.627930" lon="12.294030"><ele>2261.8</ele></trkpt>
      <trkpt lat="46.627850" lon="12.293700"><ele>2258.5</ele></trkpt>
      <trkpt lat="46.627750" lon="12.293580"><ele>2257.1</ele></trkpt>
      <trkpt lat="46.627710" lon="12.293460"><ele>2255.9</ele></trkpt>
      <trkpt lat="46.627700" lon="12.293360"><ele>2255.0</ele></trkpt>
      <trkpt lat="46.627650" lon="12.293240"><ele>2253.4</ele></trkpt>
      <trkpt lat="46.627630" lon="12.293150"><ele>2252.4</ele></trkpt>
      <trkpt lat="46.627590" lon="12.293100"><ele>2251.8</ele></trkpt>
      <trkpt lat="46.627590" lon="12.293100"><ele>2251.8</ele></trkpt>
      <trkpt lat="46.627530" lon="12.293020"><ele>2251.0</ele></trkpt>
      <trkpt lat="46.627400" lon="12.292760"><ele>2248.3</ele></trkpt>
      <trkpt lat="46.627370" lon="12.292640"><ele>2247.0</ele></trkpt>
      <trkpt lat="46.627290" lon="12.292540"><ele>2245.9</ele></trkpt>
      <trkpt lat="46.627190" lon="12.292500"><ele>2245.3</ele></trkpt>
      <trkpt lat="46.627130" lon="12.292500"><ele>2245.1</ele></trkpt>
      <trkpt lat="46.627050" lon="12.292480"><ele>2244.6</ele></trkpt>
      <trkpt lat="46.627010" lon="12.292440"><ele>2243.9</ele></trkpt>
      <trkpt lat="46.626980" lon="12.292340"><ele>2242.4</ele></trkpt>
      <trkpt lat="46.626940" lon="12.292330"><ele>2242.2</ele></trkpt>
      <trkpt lat="46.626880" lon="12.292150"><ele>2239.8</ele></trkpt>
      <trkpt lat="46.626870" lon="12.292050"><ele>2238.4</ele></trkpt>
      <trkpt lat="46.626810" lon="12.291870"><ele>2236.4</ele></trkpt>
      <trkpt lat="46.626740" lon="12.291840"><ele>2236.4</ele></trkpt>
      <trkpt lat="46.626680" lon="12.291670"><ele>2234.9</ele></trkpt>
      <trkpt lat="46.626570" lon="12.291550"><ele>2234.3</ele></trkpt>
      <trkpt lat="46.626480" lon="12.291410"><ele>2233.4</ele></trkpt>
      <trkpt lat="46.626380" lon="12.291320"><ele>2233.2</ele></trkpt>
      <trkpt lat="46.626300" lon="12.291190"><ele>2232.4</ele></trkpt>
      <trkpt lat="46.626220" lon="12.291110"><ele>2232.3</ele></trkpt>
      <trkpt lat="46.626110" lon="12.290970"><ele>2231.8</ele></trkpt>
      <trkpt lat="46.626070" lon="12.290870"><ele>2231.1</ele></trkpt>
      <trkpt lat="46.626000" lon="12.290800"><ele>2231.3</ele></trkpt>
      <trkpt lat="46.625920" lon="12.290760"><ele>2231.9</ele></trkpt>
      <trkpt lat="46.625910" lon="12.290690"><ele>2231.7</ele></trkpt>
      <trkpt lat="46.625870" lon="12.290650"><ele>2232.1</ele></trkpt>
      <trkpt lat="46.625830" lon="12.290580"><ele>2232.7</ele></trkpt>
      <trkpt lat="46.625750" lon="12.290530"><ele>2233.5</ele></trkpt>
      <trkpt lat="46.625720" lon="12.290530"><ele>2233.8</ele></trkpt>
      <trkpt lat="46.625630" lon="12.290550"><ele>2234.7</ele></trkpt>
      <trkpt lat="46.625550" lon="12.290500"><ele>2235.5</ele></trkpt>
      <trkpt lat="46.625520" lon="12.290450"><ele>2236.0</ele></trkpt>
      <trkpt lat="46.625460" lon="12.290440"><ele>2236.9</ele></trkpt>
      <trkpt lat="46.625300" lon="12.290350"><ele>2239.3</ele></trkpt>
      <trkpt lat="46.625300" lon="12.290350"><ele>2239.3</ele></trkpt>
      <trkpt lat="46.625230" lon="12.290320"><ele>2240.5</ele></trkpt>
      <trkpt lat="46.625070" lon="12.290190"><ele>2243.7</ele></trkpt>
      <trkpt lat="46.624860" lon="12.290170"><ele>2246.0</ele></trkpt>
      <trkpt lat="46.624780" lon="12.290190"><ele>2246.5</ele></trkpt>
      <trkpt lat="46.624700" lon="12.290180"><ele>2247.2</ele></trkpt>
      <trkpt lat="46.624660" lon="12.290010"><ele>2248.4</ele></trkpt>
      <trkpt lat="46.624580" lon="12.289910"><ele>2250.4</ele></trkpt>
      <trkpt lat="46.624430" lon="12.289850"><ele>2252.5</ele></trkpt>
      <trkpt lat="46.624270" lon="12.289820"><ele>2254.2</ele></trkpt>
      <trkpt lat="46.624190" lon="12.289780"><ele>2255.5</ele></trkpt>
      <trkpt lat="46.624110" lon="12.289640"><ele>2257.9</ele></trkpt>
      <trkpt lat="46.624020" lon="12.289580"><ele>2258.7</ele></trkpt>
      <trkpt lat="46.623960" lon="12.289500"><ele>2259.8</ele></trkpt>
      <trkpt lat="46.623960" lon="12.289390"><ele>2261.5</ele></trkpt>
      <trkpt lat="46.623880" lon="12.289100"><ele>2265.0</ele></trkpt>
      <trkpt lat="46.623890" lon="12.288990"><ele>2265.7</ele></trkpt>
      <trkpt lat="46.623950" lon="12.288850"><ele>2266.8</ele></trkpt>
      <trkpt lat="46.623940" lon="12.288680"><ele>2267.8</ele></trkpt>
      <trkpt lat="46.623900" lon="12.288570"><ele>2268.1</ele></trkpt>
      <trkpt lat="46.623890" lon="12.288370"><ele>2269.1</ele></trkpt>
      <trkpt lat="46.623850" lon="12.288280"><ele>2268.9</ele></trkpt>
      <trkpt lat="46.623850" lon="12.288060"><ele>2268.6</ele></trkpt>
      <trkpt lat="46.623900" lon="12.287910"><ele>2268.7</ele></trkpt>
      <trkpt lat="46.623920" lon="12.287750"><ele>2268.6</ele></trkpt>
      <trkpt lat="46.623970" lon="12.287600"><ele>2268.5</ele></trkpt>
      <trkpt lat="46.624010" lon="12.287550"><ele>2268.6</ele></trkpt>
      <trkpt lat="46.624120" lon="12.287510"><ele>2268.9</ele></trkpt>
      <trkpt lat="46.624150" lon="12.287440"><ele>2269.1</ele></trkpt>
      <trkpt lat="46.624130" lon="12.287360"><ele>2269.2</ele></trkpt>
      <trkpt lat="46.624040" lon="12.287300"><ele>2269.1</ele></trkpt>
      <trkpt lat="46.623860" lon="12.286960"><ele>2269.4</ele></trkpt>
      <trkpt lat="46.623730" lon="12.286870"><ele>2269.3</ele></trkpt>
      <trkpt lat="46.623650" lon="12.286790"><ele>2269.4</ele></trkpt>
      <trkpt lat="46.623480" lon="12.286490"><ele>2271.1</ele></trkpt>
      <trkpt lat="46.623390" lon="12.286410"><ele>2271.8</ele></trkpt>
      <trkpt lat="46.623390" lon="12.286410"><ele>2271.8</ele></trkpt>
      <trkpt lat="46.623210" lon="12.286280"><ele>2274.5</ele></trkpt>
      <trkpt lat="46.623130" lon="12.286100"><ele>2277.2</ele></trkpt>
      <trkpt lat="46.622950" lon="12.286030"><ele>2279.8</ele></trkpt>
      <trkpt lat="46.622890" lon="12.285970"><ele>2281.0</ele></trkpt>
      <trkpt lat="46.622790" lon="12.285890"><ele>2282.7</ele></trkpt>
      <trkpt lat="46.622730" lon="12.285880"><ele>2283.4</ele></trkpt>
      <trkpt lat="46.622610" lon="12.285790"><ele>2284.7</ele></trkpt>
      <trkpt lat="46.622430" lon="12.285710"><ele>2285.0</ele></trkpt>
      <trkpt lat="46.622260" lon="12.285720"><ele>2284.9</ele></trkpt>
      <trkpt lat="46.622110" lon="12.285700"><ele>2284.5</ele></trkpt>
      <trkpt lat="46.621910" lon="12.285810"><ele>2286.3</ele></trkpt>
      <trkpt lat="46.621080" lon="12.285810"><ele>2296.1</ele></trkpt>
      <trkpt lat="46.621030" lon="12.285790"><ele>2296.3</ele></trkpt>
      <trkpt lat="46.620720" lon="12.285490"><ele>2292.4</ele></trkpt>
      <trkpt lat="46.620460" lon="12.285290"><ele>2292.2</ele></trkpt>
      <trkpt lat="46.620370" lon="12.285200"><ele>2291.2</ele></trkpt>
      <trkpt lat="46.620110" lon="12.285070"><ele>2292.9</ele></trkpt>
      <trkpt lat="46.620040" lon="12.285010"><ele>2292.4</ele></trkpt>
      <trkpt lat="46.619950" lon="12.284960"><ele>2291.2</ele></trkpt>
      <trkpt lat="46.619530" lon="12.284850"><ele>2286.4</ele></trkpt>
      <trkpt lat="46.619360" lon="12.284950"><ele>2291.4</ele></trkpt>
      <trkpt lat="46.619260" lon="12.284950"><ele>2291.5</ele></trkpt>
      <trkpt lat="46.619090" lon="12.284920"><ele>2290.3</ele></trkpt>
      <trkpt lat="46.618780" lon="12.284950"><ele>2292.3</ele></trkpt>
      <trkpt lat="46.618710" lon="12.284990"><ele>2294.1</ele></trkpt>
      <trkpt lat="46.618360" lon="12.284990"><ele>2294.6</ele></trkpt>
      <trkpt lat="46.618360" lon="12.284990"><ele>2294.6</ele></trkpt>
      <trkpt lat="46.618130" lon="12.285030"><ele>2302.1</ele></trkpt>
      <trkpt lat="46.617970" lon="12.285030"><ele>2306.4</ele></trkpt>
      <trkpt lat="46.617880" lon="12.285040"><ele>2309.3</ele></trkpt>
      <trkpt lat="46.617640" lon="12.284850"><ele>2310.8</ele></trkpt>
      <trkpt lat="46.617530" lon="12.284730"><ele>2311.8</ele></trkpt>
      <trkpt lat="46.617490" lon="12.284570"><ele>2309.6</ele></trkpt>
      <trkpt lat="46.617520" lon="12.284250"><ele>2302.7</ele></trkpt>
      <trkpt lat="46.617500" lon="12.284290"><ele>2304.4</ele></trkpt>
      <trkpt lat="46.617300" lon="12.284290"><ele>2302.2</ele></trkpt>
      <trkpt lat="46.617060" lon="12.284410"><ele>2301.9</ele></trkpt>
      <trkpt lat="46.616610" lon="12.284950"><ele>2306.2</ele></trkpt>
      <trkpt lat="46.616370" lon="12.285420"><ele>2308.2</ele></trkpt>
      <trkpt lat="46.616250" lon="12.285740"><ele>2309.7</ele></trkpt>
      <trkpt lat="46.616160" lon="12.285910"><ele>2309.1</ele></trkpt>
      <trkpt lat="46.616100" lon="12.286150"><ele>2311.9</ele></trkpt>
      <trkpt lat="46.616100" lon="12.286150"><ele>2311.9</ele></trkpt>
      <trkpt lat="46.616020" lon="12.286450"><ele>2314.9</ele></trkpt>
      <trkpt lat="46.615860" lon="12.286680"><ele>2311.8</ele></trkpt>
      <trkpt lat="46.615830" lon="12.286750"><ele>2312.5</ele></trkpt>
      <trkpt lat="46.615830" lon="12.286860"><ele>2315.9</ele></trkpt>
      <trkpt lat="46.615860" lon="12.287030"><ele>2322.6</ele></trkpt>
      <trkpt lat="46.615840" lon="12.287080"><ele>2323.2</ele></trkpt>
      <trkpt lat="46.615620" lon="12.287290"><ele>2318.8</ele></trkpt>
      <trkpt lat="46.615590" lon="12.287310"><ele>2317.9</ele></trkpt>
      <trkpt lat="46.615520" lon="12.287230"><ele>2312.0</ele></trkpt>
      <trkpt lat="46.615450" lon="12.287260"><ele>2309.4</ele></trkpt>
      <trkpt lat="46.615100" lon="12.287840"><ele>2306.4</ele></trkpt>
      <trkpt lat="46.615000" lon="12.288220"><ele>2311.1</ele></trkpt>
      <trkpt lat="46.615010" lon="12.288920"><ele>2321.5</ele></trkpt>
      <trkpt lat="46.614950" lon="12.289350"><ele>2324.0</ele></trkpt>
      <trkpt lat="46.614850" lon="12.289570"><ele>2323.0</ele></trkpt>
      <trkpt lat="46.614850" lon="12.289570"><ele>2323.0</ele></trkpt>
      <trkpt lat="46.614730" lon="12.289930"><ele>2323.7</ele></trkpt>
      <trkpt lat="46.614500" lon="12.290300"><ele>2322.1</ele></trkpt>
      <trkpt lat="46.614460" lon="12.290420"><ele>2322.4</ele></trkpt>
      <trkpt lat="46.614420" lon="12.290610"><ele>2323.4</ele></trkpt>
      <trkpt lat="46.614400" lon="12.290730"><ele>2324.2</ele></trkpt>
      <trkpt lat="46.614320" lon="12.290900"><ele>2324.0</ele></trkpt>
      <trkpt lat="46.614290" lon="12.291030"><ele>2324.2</ele></trkpt>
      <trkpt lat="46.614280" lon="12.291120"><ele>2324.5</ele></trkpt>
      <trkpt lat="46.614150" lon="12.291670"><ele>2324.6</ele></trkpt>
      <trkpt lat="46.614080" lon="12.291860"><ele>2325.3</ele></trkpt>
      <trkpt lat="46.614060" lon="12.291970"><ele>2326.2</ele></trkpt>
      <trkpt lat="46.613980" lon="12.292150"><ele>2326.3</ele></trkpt>
      <trkpt lat="46.613960" lon="12.292290"><ele>2327.5</ele></trkpt>
      <trkpt lat="46.613850" lon="12.292470"><ele>2326.4</ele></trkpt>
      <trkpt lat="46.613850" lon="12.292470"><ele>2326.4</ele></trkpt>
      <trkpt lat="46.613710" lon="12.292700"><ele>2325.2</ele></trkpt>
      <trkpt lat="46.613550" lon="12.293020"><ele>2323.6</ele></trkpt>
      <trkpt lat="46.613530" lon="12.293100"><ele>2323.8</ele></trkpt>
      <trkpt lat="46.613610" lon="12.293300"><ele>2329.8</ele></trkpt>
      <trkpt lat="46.613390" lon="12.293650"><ele>2325.1</ele></trkpt>
      <trkpt lat="46.613320" lon="12.293700"><ele>2322.9</ele></trkpt>
      <trkpt lat="46.613290" lon="12.293740"><ele>2322.6</ele></trkpt>
      <trkpt lat="46.613280" lon="12.293940"><ele>2325.2</ele></trkpt>
      <trkpt lat="46.613240" lon="12.294030"><ele>2325.2</ele></trkpt>
      <trkpt lat="46.613150" lon="12.294110"><ele>2323.5</ele></trkpt>
      <trkpt lat="46.613050" lon="12.294170"><ele>2321.2</ele></trkpt>
      <trkpt lat="46.612930" lon="12.294340"><ele>2320.5</ele></trkpt>
      <trkpt lat="46.612930" lon="12.294340"><ele>2320.5</ele></trkpt>
      <trkpt lat="46.612780" lon="12.294470"><ele>2318.1</ele></trkpt>
      <trkpt lat="46.612750" lon="12.294580"><ele>2319.0</ele></trkpt>
      <trkpt lat="46.612540" lon="12.295010"><ele>2319.5</ele></trkpt>
      <trkpt lat="46.612290" lon="12.295680"><ele>2319.6</ele></trkpt>
      <trkpt lat="46.612300" lon="12.295820"><ele>2321.6</ele></trkpt>
      <trkpt lat="46.612190" lon="12.295800"><ele>2317.9</ele></trkpt>
    </trkseg>
  </trk>
</gpx>