<?xml version="1.0" encoding="UTF-8"?>
<gpx version="1.1" creator="Dolomitok Expedicio - Antigravity" xmlns="http://www.topografix.com/GPX/1/1">
  <metadata>
    <name>Via Ferrata Pisciadu (Brigata Tridentina)</name>
    <desc>Vizeses menti C/D ferrata fugghiddal</desc>
  </metadata>
  <trk>
    <name>Via Ferrata Pisciadu (Brigata Tridentina)</name>
    <trkseg>
      <trkpt lat="46.546776" lon="11.820967"><ele>1961.75390625</ele></trkpt>
      <trkpt lat="46.546841" lon="11.820967"><ele>1961.2421875</ele></trkpt>
      <trkpt lat="46.546841" lon="11.821010"><ele>1961.25390625</ele></trkpt>
      <trkpt lat="46.546755" lon="11.821203"><ele>1960.1328125</ele></trkpt>
      <trkpt lat="46.546712" lon="11.821225"><ele>1960.296875</ele></trkpt>
      <trkpt lat="46.546605" lon="11.821353"><ele>1961.58203125</ele></trkpt>
      <trkpt lat="46.546605" lon="11.821439"><ele>1960.6796875</ele></trkpt>
      <trkpt lat="46.546562" lon="11.821525"><ele>1962.0859375</ele></trkpt>
      <trkpt lat="46.546433" lon="11.821783"><ele>1964.09375</ele></trkpt>
      <trkpt lat="46.546433" lon="11.821847"><ele>1962.734375</ele></trkpt>
      <trkpt lat="46.546412" lon="11.821911"><ele>1962.4609375</ele></trkpt>
      <trkpt lat="46.546412" lon="11.821976"><ele>1961.046875</ele></trkpt>
      <trkpt lat="46.546390" lon="11.822040"><ele>1960.59375</ele></trkpt>
      <trkpt lat="46.546283" lon="11.822212"><ele>1962.125</ele></trkpt>
      <trkpt lat="46.546261" lon="11.822383"><ele>1959.39453125</ele></trkpt>
      <trkpt lat="46.546175" lon="11.822555"><ele>1958.97265625</ele></trkpt>
      <trkpt lat="46.545982" lon="11.822855"><ele>1974.296875</ele></trkpt>
      <trkpt lat="46.545939" lon="11.822963"><ele>1977.63671875</ele></trkpt>
      <trkpt lat="46.545897" lon="11.823092"><ele>1980.68359375</ele></trkpt>
      <trkpt lat="46.545918" lon="11.823478"><ele>1970.33984375</ele></trkpt>
      <trkpt lat="46.545939" lon="11.823950"><ele>1961.30859375</ele></trkpt>
      <trkpt lat="46.545897" lon="11.824250"><ele>1962.46484375</ele></trkpt>
      <trkpt lat="46.545811" lon="11.824658"><ele>1962.171875</ele></trkpt>
      <trkpt lat="46.545807" lon="11.824671"><ele>1962.2265625</ele></trkpt>
      <trkpt lat="46.545606" lon="11.824975"><ele>1975.98828125</ele></trkpt>
      <trkpt lat="46.545265" lon="11.824921"><ele>2026.40625</ele></trkpt>
      <trkpt lat="46.544847" lon="11.825046"><ele>2051.84765625</ele></trkpt>
      <trkpt lat="46.544845" lon="11.825087"><ele>2051.796875</ele></trkpt>
      <trkpt lat="46.544802" lon="11.825087"><ele>2054.046875</ele></trkpt>
      <trkpt lat="46.544759" lon="11.825109"><ele>2055.54296875</ele></trkpt>
      <trkpt lat="46.544673" lon="11.825173"><ele>2057.390625</ele></trkpt>
      <trkpt lat="46.544523" lon="11.825194"><ele>2061.0703125</ele></trkpt>
      <trkpt lat="46.544480" lon="11.825237"><ele>2061.24609375</ele></trkpt>
      <trkpt lat="46.544437" lon="11.825259"><ele>2061.828125</ele></trkpt>
      <trkpt lat="46.544373" lon="11.825237"><ele>2063.92578125</ele></trkpt>
      <trkpt lat="46.544309" lon="11.825323"><ele>2063.51953125</ele></trkpt>
      <trkpt lat="46.544180" lon="11.825387"><ele>2066.5078125</ele></trkpt>
      <trkpt lat="46.544137" lon="11.825387"><ele>2068.06640625</ele></trkpt>
      <trkpt lat="46.544094" lon="11.825430"><ele>2068.37109375</ele></trkpt>
      <trkpt lat="46.544051" lon="11.825495"><ele>2067.98828125</ele></trkpt>
      <trkpt lat="46.543880" lon="11.825624"><ele>2069.81640625</ele></trkpt>
      <trkpt lat="46.543751" lon="11.825838"><ele>2065.7109375</ele></trkpt>
      <trkpt lat="46.543665" lon="11.825924"><ele>2064.59375</ele></trkpt>
      <trkpt lat="46.543622" lon="11.826010"><ele>2061.99609375</ele></trkpt>
      <trkpt lat="46.543304" lon="11.826197"><ele>2060.265625</ele></trkpt>
      <trkpt lat="46.543257" lon="11.826224"><ele>2059.66015625</ele></trkpt>
      <trkpt lat="46.543086" lon="11.826353"><ele>2055.87890625</ele></trkpt>
      <trkpt lat="46.542892" lon="11.826396"><ele>2060.9140625</ele></trkpt>
      <trkpt lat="46.542742" lon="11.826396"><ele>2078.19921875</ele></trkpt>
      <trkpt lat="46.542699" lon="11.826439"><ele>2076.65234375</ele></trkpt>
      <trkpt lat="46.542635" lon="11.826439"><ele>2082.8828125</ele></trkpt>
      <trkpt lat="46.542571" lon="11.826525"><ele>2071.4453125</ele></trkpt>
      <trkpt lat="46.542528" lon="11.826632"><ele>2056.4609375</ele></trkpt>
      <trkpt lat="46.542528" lon="11.826675"><ele>2053.52734375</ele></trkpt>
      <trkpt lat="46.542485" lon="11.826675"><ele>2054.71484375</ele></trkpt>
      <trkpt lat="46.542399" lon="11.826696"><ele>2059.2734375</ele></trkpt>
      <trkpt lat="46.542313" lon="11.826739"><ele>2061.94140625</ele></trkpt>
      <trkpt lat="46.542249" lon="11.826718"><ele>2068.625</ele></trkpt>
      <trkpt lat="46.542141" lon="11.826718"><ele>2076.53515625</ele></trkpt>
      <trkpt lat="46.542099" lon="11.826761"><ele>2074.75</ele></trkpt>
      <trkpt lat="46.542056" lon="11.826890"><ele>2062.20703125</ele></trkpt>
      <trkpt lat="46.542034" lon="11.827018"><ele>2047.54296875</ele></trkpt>
      <trkpt lat="46.541948" lon="11.827126"><ele>2043.23046875</ele></trkpt>
      <trkpt lat="46.541798" lon="11.827168"><ele>2047.45703125</ele></trkpt>
      <trkpt lat="46.541940" lon="11.827128"><ele>2043.4609375</ele></trkpt>
      <trkpt lat="46.541948" lon="11.827190"><ele>2040.4453125</ele></trkpt>
      <trkpt lat="46.541940" lon="11.827128"><ele>2043.4609375</ele></trkpt>
      <trkpt lat="46.541798" lon="11.827168"><ele>2047.45703125</ele></trkpt>
      <trkpt lat="46.541734" lon="11.827126"><ele>2051.62109375</ele></trkpt>
      <trkpt lat="46.541669" lon="11.827147"><ele>2053.40625</ele></trkpt>
      <trkpt lat="46.541626" lon="11.827211"><ele>2053.0078125</ele></trkpt>
      <trkpt lat="46.541626" lon="11.827426"><ele>2045.9765625</ele></trkpt>
      <trkpt lat="46.541562" lon="11.827619"><ele>2043.02734375</ele></trkpt>
      <trkpt lat="46.541519" lon="11.827598"><ele>2045.73046875</ele></trkpt>
      <trkpt lat="46.541519" lon="11.827533"><ele>2047.8828125</ele></trkpt>
      <trkpt lat="46.541476" lon="11.827533"><ele>2049.8984375</ele></trkpt>
      <trkpt lat="46.541433" lon="11.827576"><ele>2050.359375</ele></trkpt>
      <trkpt lat="46.541369" lon="11.827576"><ele>2053.29296875</ele></trkpt>
      <trkpt lat="46.541348" lon="11.827533"><ele>2055.94921875</ele></trkpt>
      <trkpt lat="46.541262" lon="11.827512"><ele>2060.86328125</ele></trkpt>
      <trkpt lat="46.541219" lon="11.827512"><ele>2062.91015625</ele></trkpt>
      <trkpt lat="46.541154" lon="11.827533"><ele>2065.01953125</ele></trkpt>
      <trkpt lat="46.541004" lon="11.827555"><ele>2068.6796875</ele></trkpt>
      <trkpt lat="46.540961" lon="11.827555"><ele>2069.46875</ele></trkpt>
      <trkpt lat="46.540811" lon="11.827512"><ele>2074.0078125</ele></trkpt>
      <trkpt lat="46.540747" lon="11.827533"><ele>2074.2265625</ele></trkpt>
      <trkpt lat="46.540725" lon="11.827683"><ele>2068.9921875</ele></trkpt>
      <trkpt lat="46.540639" lon="11.827919"><ele>2062.6171875</ele></trkpt>
      <trkpt lat="46.540382" lon="11.827984"><ele>2082.66796875</ele></trkpt>
      <trkpt lat="46.540425" lon="11.827877"><ele>2084.08984375</ele></trkpt>
      <trkpt lat="46.540339" lon="11.827834"><ele>2094.83984375</ele></trkpt>
      <trkpt lat="46.540296" lon="11.827855"><ele>2097.93359375</ele></trkpt>
      <trkpt lat="46.540232" lon="11.827919"><ele>2100.3359375</ele></trkpt>
      <trkpt lat="46.540189" lon="11.827919"><ele>2104.40625</ele></trkpt>
      <trkpt lat="46.540146" lon="11.827812"><ele>2116.17578125</ele></trkpt>
      <trkpt lat="46.540060" lon="11.827812"><ele>2127.03125</ele></trkpt>
      <trkpt lat="46.539953" lon="11.827726"><ele>2146.9375</ele></trkpt>
      <trkpt lat="46.539867" lon="11.827769"><ele>2154.74609375</ele></trkpt>
      <trkpt lat="46.539845" lon="11.827683"><ele>2164.12890625</ele></trkpt>
      <trkpt lat="46.539803" lon="11.827662"><ele>2171.42578125</ele></trkpt>
      <trkpt lat="46.539824" lon="11.827555"><ele>2176.98046875</ele></trkpt>
      <trkpt lat="46.539845" lon="11.827512"><ele>2177.82421875</ele></trkpt>
      <trkpt lat="46.539845" lon="11.827469"><ele>2185.6015625</ele></trkpt>
      <trkpt lat="46.539760" lon="11.827383"><ele>2213.37109375</ele></trkpt>
      <trkpt lat="46.539695" lon="11.827362"><ele>2226.25390625</ele></trkpt>
      <trkpt lat="46.539545" lon="11.827490"><ele>2213.40625</ele></trkpt>
      <trkpt lat="46.539416" lon="11.827469"><ele>2226.5390625</ele></trkpt>
      <trkpt lat="46.539309" lon="11.827404"><ele>2244.03515625</ele></trkpt>
      <trkpt lat="46.539180" lon="11.827404"><ele>2253.53515625</ele></trkpt>
      <trkpt lat="46.539073" lon="11.827211"><ele>2282.12890625</ele></trkpt>
      <trkpt lat="46.539137" lon="11.826911"><ele>2316.6328125</ele></trkpt>
      <trkpt lat="46.539094" lon="11.826632"><ele>2349.4375</ele></trkpt>
      <trkpt lat="46.539223" lon="11.826396"><ele>2385.0859375</ele></trkpt>
      <trkpt lat="46.539202" lon="11.826203"><ele>2404.546875</ele></trkpt>
      <trkpt lat="46.539094" lon="11.825967"><ele>2413.2421875</ele></trkpt>
      <trkpt lat="46.539073" lon="11.825731"><ele>2429.28515625</ele></trkpt>
      <trkpt lat="46.539073" lon="11.825666"><ele>2434.43359375</ele></trkpt>
      <trkpt lat="46.539116" lon="11.825624"><ele>2442.140625</ele></trkpt>
      <trkpt lat="46.539137" lon="11.825581"><ele>2446.2265625</ele></trkpt>
      <trkpt lat="46.539159" lon="11.825452"><ele>2451.59765625</ele></trkpt>
      <trkpt lat="46.539202" lon="11.825409"><ele>2457.7890625</ele></trkpt>
      <trkpt lat="46.539266" lon="11.825387"><ele>2463.11328125</ele></trkpt>
      <trkpt lat="46.539245" lon="11.825323"><ele>2463.27734375</ele></trkpt>
      <trkpt lat="46.539288" lon="11.825237"><ele>2466.79296875</ele></trkpt>
      <trkpt lat="46.539288" lon="11.825237"><ele>2466.79296875</ele></trkpt>
      <trkpt lat="46.539245" lon="11.825323"><ele>2463.27734375</ele></trkpt>
      <trkpt lat="46.539288" lon="11.825237"><ele>2466.79296875</ele></trkpt>
      <trkpt lat="46.539471" lon="11.825308"><ele>2473.328125</ele></trkpt>
      <trkpt lat="46.539288" lon="11.825237"><ele>2466.79296875</ele></trkpt>
      <trkpt lat="46.539245" lon="11.825323"><ele>2463.27734375</ele></trkpt>
      <trkpt lat="46.539288" lon="11.825237"><ele>2466.79296875</ele></trkpt>
      <trkpt lat="46.539478" lon="11.825311"><ele>2473.39453125</ele></trkpt>
      <trkpt lat="46.539683" lon="11.825075"><ele>2499.59765625</ele></trkpt>
      <trkpt lat="46.539659" lon="11.824753"><ele>2510.140625</ele></trkpt>
      <trkpt lat="46.539796" lon="11.824753"><ele>2513.9921875</ele></trkpt>
      <trkpt lat="46.539618" lon="11.824198"><ele>2524.89453125</ele></trkpt>
      <trkpt lat="46.539218" lon="11.823415"><ele>2533.87109375</ele></trkpt>
      <trkpt lat="46.538456" lon="11.823247"><ele>2549.99609375</ele></trkpt>
      <trkpt lat="46.538254" lon="11.822782"><ele>2564.65625</ele></trkpt>
      <trkpt lat="46.537832" lon="11.822209"><ele>2575.28125</ele></trkpt>
      <trkpt lat="46.536359" lon="11.821560"><ele>2589.11328125</ele></trkpt>
      <trkpt lat="46.536369" lon="11.821611"><ele>2588.7734375</ele></trkpt>
      <trkpt lat="46.536391" lon="11.821504"><ele>2590.0703125</ele></trkpt>
      <trkpt lat="46.536412" lon="11.821439"><ele>2591.02734375</ele></trkpt>
      <trkpt lat="46.536455" lon="11.821332"><ele>2592.75390625</ele></trkpt>
      <trkpt lat="46.536520" lon="11.821225"><ele>2594.0625</ele></trkpt>
      <trkpt lat="46.536562" lon="11.821139"><ele>2595.0859375</ele></trkpt>
      <trkpt lat="46.536562" lon="11.821096"><ele>2595.5703125</ele></trkpt>
      <trkpt lat="46.536541" lon="11.821010"><ele>2596.62109375</ele></trkpt>
      <trkpt lat="46.536541" lon="11.820924"><ele>2597.984375</ele></trkpt>
      <trkpt lat="46.536584" lon="11.820903"><ele>2598.47265625</ele></trkpt>
      <trkpt lat="46.536627" lon="11.820903"><ele>2598.62109375</ele></trkpt>
      <trkpt lat="46.536691" lon="11.820924"><ele>2598.46875</ele></trkpt>
      <trkpt lat="46.536734" lon="11.820924"><ele>2598.60546875</ele></trkpt>
      <trkpt lat="46.536777" lon="11.820881"><ele>2599.5234375</ele></trkpt>
      <trkpt lat="46.536798" lon="11.820838"><ele>2600.3828125</ele></trkpt>
      <trkpt lat="46.536906" lon="11.820774"><ele>2602.05859375</ele></trkpt>
      <trkpt lat="46.536927" lon="11.820710"><ele>2603.43359375</ele></trkpt>
      <trkpt lat="46.536863" lon="11.820667"><ele>2603.88671875</ele></trkpt>
      <trkpt lat="46.536798" lon="11.820538"><ele>2605.6640625</ele></trkpt>
      <trkpt lat="46.536798" lon="11.820452"><ele>2606.7421875</ele></trkpt>
      <trkpt lat="46.536820" lon="11.820388"><ele>2607.6328125</ele></trkpt>
      <trkpt lat="46.536863" lon="11.820345"><ele>2608.296875</ele></trkpt>
      <trkpt lat="46.536884" lon="11.820259"><ele>2609.33984375</ele></trkpt>
      <trkpt lat="46.536992" lon="11.820152"><ele>2610.4921875</ele></trkpt>
      <trkpt lat="46.537035" lon="11.820023"><ele>2611.69140625</ele></trkpt>
      <trkpt lat="46.537035" lon="11.819959"><ele>2612.359375</ele></trkpt>
      <trkpt lat="46.537077" lon="11.819851"><ele>2613.1171875</ele></trkpt>
      <trkpt lat="46.537120" lon="11.819787"><ele>2613.30078125</ele></trkpt>
      <trkpt lat="46.537142" lon="11.819594"><ele>2614.9140625</ele></trkpt>
      <trkpt lat="46.537163" lon="11.819530"><ele>2615.421875</ele></trkpt>
      <trkpt lat="46.537206" lon="11.819530"><ele>2614.72265625</ele></trkpt>
      <trkpt lat="46.537249" lon="11.819487"><ele>2614.4609375</ele></trkpt>
      <trkpt lat="46.537271" lon="11.819422"><ele>2614.7109375</ele></trkpt>
      <trkpt lat="46.537292" lon="11.819293"><ele>2615.46875</ele></trkpt>
      <trkpt lat="46.537313" lon="11.819251"><ele>2615.33984375</ele></trkpt>
      <trkpt lat="46.537313" lon="11.819143"><ele>2616.37890625</ele></trkpt>
      <trkpt lat="46.537335" lon="11.819079"><ele>2616.46875</ele></trkpt>
      <trkpt lat="46.537378" lon="11.819015"><ele>2615.7578125</ele></trkpt>
      <trkpt lat="46.537366" lon="11.818939"><ele>2616.83984375</ele></trkpt>
      <trkpt lat="46.537399" lon="11.818929"><ele>2615.40625</ele></trkpt>
      <trkpt lat="46.537366" lon="11.818939"><ele>2616.83984375</ele></trkpt>
      <trkpt lat="46.537378" lon="11.819015"><ele>2615.7578125</ele></trkpt>
      <trkpt lat="46.537421" lon="11.819015"><ele>2613.7265625</ele></trkpt>
      <trkpt lat="46.537464" lon="11.818950"><ele>2611.453125</ele></trkpt>
      <trkpt lat="46.537507" lon="11.818972"><ele>2609.06640625</ele></trkpt>
      <trkpt lat="46.537549" lon="11.818950"><ele>2606.375</ele></trkpt>
      <trkpt lat="46.537549" lon="11.818907"><ele>2605.828125</ele></trkpt>
      <trkpt lat="46.537528" lon="11.818843"><ele>2606.578125</ele></trkpt>
      <trkpt lat="46.537528" lon="11.818779"><ele>2605.9375</ele></trkpt>
      <trkpt lat="46.537571" lon="11.818800"><ele>2602.76953125</ele></trkpt>
      <trkpt lat="46.537614" lon="11.818864"><ele>2600.75</ele></trkpt>
      <trkpt lat="46.537657" lon="11.818950"><ele>2600.03125</ele></trkpt>
      <trkpt lat="46.537700" lon="11.818972"><ele>2598.1875</ele></trkpt>
      <trkpt lat="46.537764" lon="11.818993"><ele>2595.43359375</ele></trkpt>
      <trkpt lat="46.537743" lon="11.818929"><ele>2594.13671875</ele></trkpt>
      <trkpt lat="46.537700" lon="11.818821"><ele>2593.3203125</ele></trkpt>
      <trkpt lat="46.537743" lon="11.818843"><ele>2590.875</ele></trkpt>
      <trkpt lat="46.537764" lon="11.818886"><ele>2591.0546875</ele></trkpt>
      <trkpt lat="46.537807" lon="11.818907"><ele>2589.15234375</ele></trkpt>
      <trkpt lat="46.537807" lon="11.818843"><ele>2586.1640625</ele></trkpt>
      <trkpt lat="46.537850" lon="11.818843"><ele>2583.0390625</ele></trkpt>
      <trkpt lat="46.537850" lon="11.818779"><ele>2579.6875</ele></trkpt>
      <trkpt lat="46.537871" lon="11.818736"><ele>2575.73046875</ele></trkpt>
      <trkpt lat="46.537936" lon="11.818779"><ele>2573.49609375</ele></trkpt>
      <trkpt lat="46.538000" lon="11.818779"><ele>2568.85546875</ele></trkpt>
      <trkpt lat="46.538043" lon="11.818757"><ele>2563.8671875</ele></trkpt>
      <trkpt lat="46.538022" lon="11.818671"><ele>2564.62109375</ele></trkpt>
      <trkpt lat="46.538022" lon="11.818628"><ele>2566.08203125</ele></trkpt>
      <trkpt lat="46.538022" lon="11.818564"><ele>2568.27734375</ele></trkpt>
      <trkpt lat="46.538043" lon="11.818521"><ele>2567.52734375</ele></trkpt>
      <trkpt lat="46.538107" lon="11.818478"><ele>2561.9765625</ele></trkpt>
      <trkpt lat="46.538258" lon="11.818521"><ele>2545.41015625</ele></trkpt>
      <trkpt lat="46.538322" lon="11.818478"><ele>2538.90234375</ele></trkpt>
      <trkpt lat="46.538386" lon="11.818500"><ele>2531.98828125</ele></trkpt>
      <trkpt lat="46.538451" lon="11.818500"><ele>2525.140625</ele></trkpt>
      <trkpt lat="46.538537" lon="11.818478"><ele>2515.58984375</ele></trkpt>
      <trkpt lat="46.538579" lon="11.818435"><ele>2509.875</ele></trkpt>
      <trkpt lat="46.538622" lon="11.818371"><ele>2503.140625</ele></trkpt>
      <trkpt lat="46.538773" lon="11.818392"><ele>2486.0625</ele></trkpt>
      <trkpt lat="46.538815" lon="11.818371"><ele>2481.69140625</ele></trkpt>
      <trkpt lat="46.538837" lon="11.818135"><ele>2470.73046875</ele></trkpt>
      <trkpt lat="46.538794" lon="11.818092"><ele>2473.9921875</ele></trkpt>
      <trkpt lat="46.538794" lon="11.818006"><ele>2472.015625</ele></trkpt>
      <trkpt lat="46.538837" lon="11.817920"><ele>2466.13671875</ele></trkpt>
      <trkpt lat="46.538923" lon="11.817791"><ele>2456.1640625</ele></trkpt>
      <trkpt lat="46.538901" lon="11.817534"><ele>2458.93359375</ele></trkpt>
      <trkpt lat="46.538987" lon="11.817470"><ele>2452.53515625</ele></trkpt>
      <trkpt lat="46.539137" lon="11.817384"><ele>2441.8125</ele></trkpt>
      <trkpt lat="46.539245" lon="11.817276"><ele>2437.23046875</ele></trkpt>
      <trkpt lat="46.539352" lon="11.817255"><ele>2429.48828125</ele></trkpt>
      <trkpt lat="46.539502" lon="11.817405"><ele>2414.6015625</ele></trkpt>
      <trkpt lat="46.539695" lon="11.817341"><ele>2401.2421875</ele></trkpt>
      <trkpt lat="46.539845" lon="11.817427"><ele>2391.2421875</ele></trkpt>
      <trkpt lat="46.540060" lon="11.817191"><ele>2383.46484375</ele></trkpt>
      <trkpt lat="46.540468" lon="11.817148"><ele>2389.65234375</ele></trkpt>
      <trkpt lat="46.540704" lon="11.817276"><ele>2385.8671875</ele></trkpt>
      <trkpt lat="46.540489" lon="11.817641"><ele>2358.87890625</ele></trkpt>
      <trkpt lat="46.540833" lon="11.817684"><ele>2354.59765625</ele></trkpt>
      <trkpt lat="46.540682" lon="11.817813"><ele>2344.90625</ele></trkpt>
      <trkpt lat="46.540833" lon="11.817834"><ele>2339.93359375</ele></trkpt>
      <trkpt lat="46.540833" lon="11.817963"><ele>2333.7421875</ele></trkpt>
      <trkpt lat="46.541004" lon="11.817942"><ele>2329.75</ele></trkpt>
      <trkpt lat="46.540918" lon="11.818156"><ele>2321.515625</ele></trkpt>
      <trkpt lat="46.541197" lon="11.818049"><ele>2325.34765625</ele></trkpt>
      <trkpt lat="46.541326" lon="11.818199"><ele>2307.140625</ele></trkpt>
      <trkpt lat="46.541305" lon="11.818414"><ele>2294.625</ele></trkpt>
      <trkpt lat="46.541176" lon="11.818779"><ele>2298.578125</ele></trkpt>
      <trkpt lat="46.541348" lon="11.819057"><ele>2303.796875</ele></trkpt>
      <trkpt lat="46.541433" lon="11.819165"><ele>2294.43359375</ele></trkpt>
      <trkpt lat="46.541519" lon="11.819122"><ele>2278.39453125</ele></trkpt>
      <trkpt lat="46.541626" lon="11.818972"><ele>2269.0703125</ele></trkpt>
      <trkpt lat="46.541884" lon="11.819057"><ele>2253.6796875</ele></trkpt>
      <trkpt lat="46.541862" lon="11.819251"><ele>2256.95703125</ele></trkpt>
      <trkpt lat="46.541884" lon="11.819358"><ele>2259.328125</ele></trkpt>
      <trkpt lat="46.541862" lon="11.819487"><ele>2267.6953125</ele></trkpt>
      <trkpt lat="46.541991" lon="11.819465"><ele>2247.07421875</ele></trkpt>
      <trkpt lat="46.542120" lon="11.819465"><ele>2237.26171875</ele></trkpt>
      <trkpt lat="46.542206" lon="11.819336"><ele>2232.23828125</ele></trkpt>
      <trkpt lat="46.542270" lon="11.819336"><ele>2228.19921875</ele></trkpt>
      <trkpt lat="46.542313" lon="11.819401"><ele>2225.49609375</ele></trkpt>
      <trkpt lat="46.542377" lon="11.819422"><ele>2221.53125</ele></trkpt>
      <trkpt lat="46.542420" lon="11.819487"><ele>2218.98046875</ele></trkpt>
      <trkpt lat="46.542528" lon="11.819508"><ele>2212.82421875</ele></trkpt>
      <trkpt lat="46.542592" lon="11.819615"><ele>2209.40625</ele></trkpt>
      <trkpt lat="46.542678" lon="11.819615"><ele>2204.609375</ele></trkpt>
      <trkpt lat="46.542742" lon="11.819594"><ele>2201.0234375</ele></trkpt>
      <trkpt lat="46.542828" lon="11.819637"><ele>2196.1953125</ele></trkpt>
      <trkpt lat="46.542892" lon="11.819658"><ele>2192.671875</ele></trkpt>
      <trkpt lat="46.542935" lon="11.819723"><ele>2190.50390625</ele></trkpt>
      <trkpt lat="46.543000" lon="11.819766"><ele>2187.53125</ele></trkpt>
      <trkpt lat="46.543086" lon="11.819787"><ele>2183.48046875</ele></trkpt>
      <trkpt lat="46.543107" lon="11.819830"><ele>2182.6015625</ele></trkpt>
      <trkpt lat="46.543150" lon="11.819873"><ele>2180.66796875</ele></trkpt>
      <trkpt lat="46.543193" lon="11.820002"><ele>2178.984375</ele></trkpt>
      <trkpt lat="46.543322" lon="11.820087"><ele>2172.8671875</ele></trkpt>
      <trkpt lat="46.543365" lon="11.820066"><ele>2170.69140625</ele></trkpt>
      <trkpt lat="46.543429" lon="11.820066"><ele>2167.62109375</ele></trkpt>
      <trkpt lat="46.543515" lon="11.820109"><ele>2163.81640625</ele></trkpt>
      <trkpt lat="46.543536" lon="11.820023"><ele>2162.65625</ele></trkpt>
      <trkpt lat="46.543601" lon="11.820002"><ele>2159.69140625</ele></trkpt>
      <trkpt lat="46.543665" lon="11.820066"><ele>2156.90625</ele></trkpt>
      <trkpt lat="46.543708" lon="11.820023"><ele>2154.8671875</ele></trkpt>
      <trkpt lat="46.543815" lon="11.819980"><ele>2149.90234375</ele></trkpt>
      <trkpt lat="46.543858" lon="11.820087"><ele>2148.1875</ele></trkpt>
      <trkpt lat="46.543901" lon="11.820045"><ele>2145.8828125</ele></trkpt>
      <trkpt lat="46.544008" lon="11.820087"><ele>2140.203125</ele></trkpt>
      <trkpt lat="46.544073" lon="11.820152"><ele>2136.96484375</ele></trkpt>
      <trkpt lat="46.544137" lon="11.820195"><ele>2133.68359375</ele></trkpt>
      <trkpt lat="46.544158" lon="11.820302"><ele>2133.05859375</ele></trkpt>
      <trkpt lat="46.544201" lon="11.820345"><ele>2130.78125</ele></trkpt>
      <trkpt lat="46.544201" lon="11.820238"><ele>2130.30078125</ele></trkpt>
      <trkpt lat="46.544266" lon="11.820152"><ele>2126.390625</ele></trkpt>
      <trkpt lat="46.544352" lon="11.820302"><ele>2121.90234375</ele></trkpt>
      <trkpt lat="46.544394" lon="11.820409"><ele>2119.15625</ele></trkpt>
      <trkpt lat="46.544437" lon="11.820216"><ele>2117.23046875</ele></trkpt>
      <trkpt lat="46.544480" lon="11.820216"><ele>2114.921875</ele></trkpt>
      <trkpt lat="46.544523" lon="11.820366"><ele>2111.140625</ele></trkpt>
      <trkpt lat="46.544523" lon="11.820774"><ele>2108.109375</ele></trkpt>
      <trkpt lat="46.544588" lon="11.821010"><ele>2101.68359375</ele></trkpt>
      <trkpt lat="46.544609" lon="11.821074"><ele>2100.08984375</ele></trkpt>
      <trkpt lat="46.544673" lon="11.821203"><ele>2096.078125</ele></trkpt>
      <trkpt lat="46.544738" lon="11.821375"><ele>2092.6640625</ele></trkpt>
      <trkpt lat="46.544781" lon="11.821439"><ele>2089.96484375</ele></trkpt>
      <trkpt lat="46.544845" lon="11.821611"><ele>2087.69140625</ele></trkpt>
      <trkpt lat="46.544909" lon="11.821697"><ele>2084.93359375</ele></trkpt>
      <trkpt lat="46.545017" lon="11.821826"><ele>2081.12109375</ele></trkpt>
      <trkpt lat="46.545103" lon="11.821890"><ele>2077.84765625</ele></trkpt>
      <trkpt lat="46.545060" lon="11.821654"><ele>2073.75390625</ele></trkpt>
      <trkpt lat="46.545060" lon="11.821589"><ele>2071.96484375</ele></trkpt>
      <trkpt lat="46.545017" lon="11.821375"><ele>2071.2578125</ele></trkpt>
      <trkpt lat="46.545081" lon="11.821482"><ele>2067.65625</ele></trkpt>
      <trkpt lat="46.545124" lon="11.821504"><ele>2064.71875</ele></trkpt>
      <trkpt lat="46.545188" lon="11.821482"><ele>2059.53125</ele></trkpt>
      <trkpt lat="46.545231" lon="11.821439"><ele>2055.7265625</ele></trkpt>
      <trkpt lat="46.545231" lon="11.821396"><ele>2055.17578125</ele></trkpt>
      <trkpt lat="46.545317" lon="11.821311"><ele>2047.31640625</ele></trkpt>
      <trkpt lat="46.545360" lon="11.821289"><ele>2043.72265625</ele></trkpt>
      <trkpt lat="46.545382" lon="11.821246"><ele>2041.6875</ele></trkpt>
      <trkpt lat="46.545446" lon="11.821268"><ele>2036.859375</ele></trkpt>
      <trkpt lat="46.545510" lon="11.821268"><ele>2031.85546875</ele></trkpt>
      <trkpt lat="46.545510" lon="11.821225"><ele>2031.7109375</ele></trkpt>
      <trkpt lat="46.545553" lon="11.821182"><ele>2028.375</ele></trkpt>
      <trkpt lat="46.545639" lon="11.821139"><ele>2022.04296875</ele></trkpt>
      <trkpt lat="46.545618" lon="11.821225"><ele>2023.546875</ele></trkpt>
      <trkpt lat="46.545768" lon="11.821246"><ele>2012.6875</ele></trkpt>
      <trkpt lat="46.545768" lon="11.821203"><ele>2012.8828125</ele></trkpt>
      <trkpt lat="46.545811" lon="11.821182"><ele>2010.26171875</ele></trkpt>
      <trkpt lat="46.545854" lon="11.821203"><ele>2007.4375</ele></trkpt>
      <trkpt lat="46.545875" lon="11.821268"><ele>2005.75</ele></trkpt>
      <trkpt lat="46.545918" lon="11.821203"><ele>2003.3515625</ele></trkpt>
      <trkpt lat="46.545961" lon="11.821225"><ele>2000.51171875</ele></trkpt>
      <trkpt lat="46.546025" lon="11.821182"><ele>1996.66796875</ele></trkpt>
      <trkpt lat="46.546004" lon="11.821117"><ele>1998.39453125</ele></trkpt>
      <trkpt lat="46.546025" lon="11.821074"><ele>1997.2890625</ele></trkpt>
      <trkpt lat="46.546068" lon="11.821074"><ele>1994.59375</ele></trkpt>
      <trkpt lat="46.546154" lon="11.821074"><ele>1989.19921875</ele></trkpt>
      <trkpt lat="46.546175" lon="11.821032"><ele>1988.0703125</ele></trkpt>
      <trkpt lat="46.546154" lon="11.820946"><ele>1989.16015625</ele></trkpt>
      <trkpt lat="46.546197" lon="11.820924"><ele>1986.66796875</ele></trkpt>
      <trkpt lat="46.546240" lon="11.820946"><ele>1984.39453125</ele></trkpt>
      <trkpt lat="46.546304" lon="11.820924"><ele>1980.87109375</ele></trkpt>
      <trkpt lat="46.546369" lon="11.820924"><ele>1977.390625</ele></trkpt>
      <trkpt lat="46.546390" lon="11.820881"><ele>1976.140625</ele></trkpt>
      <trkpt lat="46.546433" lon="11.820924"><ele>1973.9140625</ele></trkpt>
      <trkpt lat="46.546433" lon="11.820967"><ele>1974.00390625</ele></trkpt>
      <trkpt lat="46.546476" lon="11.821053"><ele>1971.703125</ele></trkpt>
      <trkpt lat="46.546540" lon="11.821160"><ele>1967.15625</ele></trkpt>
      <trkpt lat="46.546583" lon="11.821182"><ele>1964.56640625</ele></trkpt>
      <trkpt lat="46.546626" lon="11.821139"><ele>1962.6484375</ele></trkpt>
      <trkpt lat="46.546669" lon="11.821117"><ele>1961.87890625</ele></trkpt>
      <trkpt lat="46.546690" lon="11.821160"><ele>1961.2109375</ele></trkpt>
      <trkpt lat="46.546712" lon="11.821225"><ele>1960.296875</ele></trkpt>
      <trkpt lat="46.546755" lon="11.821203"><ele>1960.1328125</ele></trkpt>
      <trkpt lat="46.546841" lon="11.821010"><ele>1961.25390625</ele></trkpt>
      <trkpt lat="46.546841" lon="11.820967"><ele>1961.2421875</ele></trkpt>
      <trkpt lat="46.546776" lon="11.820967"><ele>1961.75390625</ele></trkpt>
    </trkseg>
  </trk>
</gpx>